Address,City,City,State,Name,URL,Program Details,School district,Image
1011 Vance Jackson Rd,"San Antonio, TX",San Antonio, TX,Pepperidge Apts,https://www.saisd.net/page/article/227,Meals droped of by school bus from 9:30 a.m. to 10:00 a.m.,SA ISD,https://nowcastsa.com/sites/default/files/styles/thumbnail/public/saisd_bus_food_stops.png
615 Vance Jackson Rd,"San Antonio, TX",San Antonio, TX,Fleetwood apts,https://www.saisd.net/page/article/227,Meals droped of by school bus from 10:10 a.m. to 10:40 a.m.,SA ISD,https://nowcastsa.com/sites/default/files/styles/thumbnail/public/saisd_bus_food_stops.png
423 Vance Jackson Rd,"San Antonio, TX",San Antonio, TX,Tradewinds Villas Apts,https://www.saisd.net/page/article/227,Meals droped of by school bus from 10:50 a.m. to 11:20 a.m.,SA ISD,https://nowcastsa.com/sites/default/files/styles/thumbnail/public/saisd_bus_food_stops.png
315 Vance Jackson Rd,"San Antonio, TX",San Antonio, TX,Tarry Towne Apts,https://www.saisd.net/page/article/227,Meals droped of by school bus from 11:30 a.m. to 12:00 p.m.,SA ISD,https://nowcastsa.com/sites/default/files/styles/thumbnail/public/saisd_bus_food_stops.png
1400 Gardina,"San Antonio, TX",San Antonio, TX,Spring Wood Apts,https://www.saisd.net/page/article/227,Meals droped of by school bus from 12:10 p.m. to 12:40 p.m.,SA ISD,https://nowcastsa.com/sites/default/files/styles/thumbnail/public/saisd_bus_food_stops.png
1318 Gardina,"San Antonio, TX",San Antonio, TX,Gardina Court Apts,https://www.saisd.net/page/article/227,Meals droped of by school bus from 12:50 p.m. to 1:20 p.m.,SA ISD,https://nowcastsa.com/sites/default/files/styles/thumbnail/public/saisd_bus_food_stops.png
4325 NW Loop 410,"San Antonio, TX",San Antonio, TX,South Point Oaks Apts,https://www.saisd.net/page/article/227,Meals droped of by school bus from 9:45 a.m. to 10:15 a.m.,SA ISD,https://nowcastsa.com/sites/default/files/styles/thumbnail/public/saisd_bus_food_stops.png
3253 Hillcrest Dr,"San Antonio, TX",San Antonio, TX,Woods of Brookhollow Apts,https://www.saisd.net/page/article/227,Meals droped of by school bus from 10:25 a.m. to 10:55 a.m.,SA ISD,https://nowcastsa.com/sites/default/files/styles/thumbnail/public/saisd_bus_food_stops.png
3110 Hillcrest Dr # 105,"San Antonio, TX",San Antonio, TX,Dakota apts,https://www.saisd.net/page/article/227,Meals droped of by school bus from 11:05 a.m. to 11:35 a.m.,SA ISD,https://nowcastsa.com/sites/default/files/styles/thumbnail/public/saisd_bus_food_stops.png
2903 Hillcrest Dr,"San Antonio, TX",San Antonio, TX,Trio apts,https://www.saisd.net/page/article/227,Meals droped of by school bus from 11:45 a.m. to 12:15 p.m.,SA ISD,https://nowcastsa.com/sites/default/files/styles/thumbnail/public/saisd_bus_food_stops.png
1150 Babcock Rd,"San Antonio, TX",San Antonio, TX,Spanish keys apts,https://www.saisd.net/page/article/227,Meals droped of by school bus from 12:25 a.m. to 12:55 p.m.,SA ISD,https://nowcastsa.com/sites/default/files/styles/thumbnail/public/saisd_bus_food_stops.png
801 Gentleman Rd,"San Antonio, TX",San Antonio, TX,Terrace House Apts,https://www.saisd.net/page/article/227,Meals droped of by school bus from 1:00 p.m. to 1:30 p.m.,SA ISD,https://nowcastsa.com/sites/default/files/styles/thumbnail/public/saisd_bus_food_stops.png
6222 S New Braunfels Ave,"San Antonio, TX",San Antonio, TX,Costa Almadena Apts,https://www.saisd.net/page/article/227,Meals droped of by school bus from 9:45 a.m. to 10:15 a.m.,SA ISD,https://nowcastsa.com/sites/default/files/styles/thumbnail/public/saisd_bus_food_stops.png
538 Hot Wells Blvd,"San Antonio, TX",San Antonio, TX,Robins Nest Apts,https://www.saisd.net/page/article/227,Meals droped of by school bus from 10:25 a.m. to 10:55 a.m.,SA ISD,https://nowcastsa.com/sites/default/files/styles/thumbnail/public/saisd_bus_food_stops.png
501 Koehler Ct,"San Antonio, TX",San Antonio, TX,Hillside Manor Apts,https://www.saisd.net/page/article/227,Meals droped of by school bus from 11:05 a.m. to 11:35 a.m.,SA ISD,https://nowcastsa.com/sites/default/files/styles/thumbnail/public/saisd_bus_food_stops.png
515 Riverside Dr,"San Antonio, TX",San Antonio, TX,Riverside Apts,https://www.saisd.net/page/article/227,Meals droped of by school bus from 11:45 a.m. to 12:15 p.m.,SA ISD,https://nowcastsa.com/sites/default/files/styles/thumbnail/public/saisd_bus_food_stops.png
927 VFW Blvd,"San Antonio, TX",San Antonio, TX,Mission Del Rio Apts,https://www.saisd.net/page/article/227,Meals droped of by school bus from 12:25 p.m. to 12:55 p.m.,SA ISD,https://nowcastsa.com/sites/default/files/styles/thumbnail/public/saisd_bus_food_stops.png
1600 Saltillo St,"San Antonio, TX",San Antonio, TX,Good Samaritan Center,https://www.saisd.net/page/article/227,Meals droped of by school bus from 9:45 a.m. to 10:15 a.m.,SA ISD,https://nowcastsa.com/sites/default/files/styles/thumbnail/public/saisd_bus_food_stops.png
1938 S Zarzamora St,"San Antonio, TX",San Antonio, TX,San Juan Square Apts,https://www.saisd.net/page/article/227,Meals droped of by school bus from 10:25 a.m. to 10:55 a.m.,SA ISD,https://nowcastsa.com/sites/default/files/styles/thumbnail/public/saisd_bus_food_stops.png
2003 S Zarzamora St,"San Antonio, TX",San Antonio, TX,Gardens at San Juan Square Apts,https://www.saisd.net/page/article/227,Meals droped of by school bus from 11:05 a.m. to 11:35 a.m.,SA ISD,https://nowcastsa.com/sites/default/files/styles/thumbnail/public/saisd_bus_food_stops.png
2404 S Calaveras St,"San Antonio, TX",San Antonio, TX,San Juan Square 2 Apts,https://www.saisd.net/page/article/227,Meals droped of by school bus from 11:45 a.m. to 12:15 p.m.,SA ISD,https://nowcastsa.com/sites/default/files/styles/thumbnail/public/saisd_bus_food_stops.png
1901 S San Marcos,"San Antonio, TX",San Antonio, TX,Artisan at Creekside Apts,https://www.saisd.net/page/article/227,Meals droped of by school bus from 12:25 p.m. to 12:55 p.m.,SA ISD,https://nowcastsa.com/sites/default/files/styles/thumbnail/public/saisd_bus_food_stops.png
4618 Dietrich Rd,"San Antonio, TX",San Antonio, TX,Dietrich Rd Apts,https://www.saisd.net/page/article/227,Meals droped of by school bus from 9:45 a.m. to 10:15 a.m.,SA ISD,https://nowcastsa.com/sites/default/files/styles/thumbnail/public/saisd_bus_food_stops.png
4141 I-10 Frontage Rd,"San Antonio, TX",San Antonio, TX,Casa Pointe Apts,https://www.saisd.net/page/article/227,Meals droped of by school bus from 10:25 a.m. to 10:55 a.m.,SA ISD,https://nowcastsa.com/sites/default/files/styles/thumbnail/public/saisd_bus_food_stops.png
3735 E Commerce St,"San Antonio, TX",San Antonio, TX,The Palms/Edge Apts,https://www.saisd.net/page/article/227,Meals droped of by school bus from 11:05 a.m. to 11:35 a.m.,SA ISD,https://nowcastsa.com/sites/default/files/styles/thumbnail/public/saisd_bus_food_stops.png
1010 Locke St,"San Antonio, TX",San Antonio, TX,Park At Sutton Oaks Apts,https://www.saisd.net/page/article/227,Meals droped of by school bus from 11:45 a.m. to 12:15 p.m.,SA ISD,https://nowcastsa.com/sites/default/files/styles/thumbnail/public/saisd_bus_food_stops.png
2818 N IH-35,"San Antonio, TX",San Antonio, TX,Sutton Oaks Apts,https://www.saisd.net/page/article/227,Meals droped of by school bus from 12:25 p.m. to 12:55 p.m.,SA ISD,https://nowcastsa.com/sites/default/files/styles/thumbnail/public/saisd_bus_food_stops.png
1111 S. Navidad St.,"San Antonio, TX",San Antonio, TX,Barkley-Ruiz Elementary School,https://www.saisd.net/page/article/227,curbside pickup of breakfast and lunch from 10:30 a.m. to 12:30 p.m.,SA ISD,https://nowcastsa.com/sites/default/files/styles/thumbnail/public/sanantonioisd.jpg
1411 W. Ashby Place,"San Antonio, TX",San Antonio, TX,Beacon Hill Elementary School,https://www.saisd.net/page/article/227,curbside pickup of breakfast and lunch from 10:30 a.m. to 12:30 p.m.,SA ISD,https://nowcastsa.com/sites/default/files/styles/thumbnail/public/sanantonioisd.jpg
510 Morningview Drive,"San Antonio, TX",San Antonio, TX,Gates Elementary,https://www.saisd.net/page/article/227,curbside pickup of breakfast and lunch from 10:30 a.m. to 12:30 p.m.,SA ISD,https://nowcastsa.com/sites/default/files/styles/thumbnail/public/sanantonioisd.jpg
325 Pruitt Ave.,"San Antonio, TX",San Antonio, TX,Harris Middle School,https://www.saisd.net/page/article/227,curbside pickup of breakfast and lunch from 10:30 a.m. to 12:30 p.m.,SA ISD,https://nowcastsa.com/sites/default/files/styles/thumbnail/public/sanantonioisd.jpg
1130 E. Sunshine Drive,"San Antonio, TX",San Antonio, TX,Longfellow Middle School,https://www.saisd.net/page/article/227,curbside pickup of breakfast and lunch from 10:30 a.m. to 12:30 p.m.,SA ISD,https://nowcastsa.com/sites/default/files/styles/thumbnail/public/sanantonioisd.jpg
3000 Tampico St,"San Antonio, TX",San Antonio, TX,Rhodes Middle School,https://www.saisd.net/page/article/227,curbside pickup of breakfast and lunch from 10:30 a.m. to 12:30 p.m.,SA ISD,https://nowcastsa.com/sites/default/files/styles/thumbnail/public/sanantonioisd.jpg
202 School St.,"San Antonio, TX",San Antonio, TX,Riverside Park Elementary School,https://www.saisd.net/page/article/227,curbside pickup of breakfast and lunch from 10:30 a.m. to 12:30 p.m.,SA ISD,https://nowcastsa.com/sites/default/files/styles/thumbnail/public/sanantonioisd.jpg
2101 Edison Drive,"San Antonio, TX",San Antonio, TX,Whittier Middle School,https://www.saisd.net/page/article/227,curbside pickup of breakfast and lunch from 10:30 a.m. to 12:30 p.m.,SA ISD,https://nowcastsa.com/sites/default/files/styles/thumbnail/public/sanantonioisd.jpg
515 Willow St.,"San Antonio, TX",San Antonio, TX,Bowden Academy,https://www.saisd.net/page/article/227,curbside pickup of breakfast and lunch from 10:30 a.m. to 12:30 p.m.,SA ISD,https://nowcastsa.com/sites/default/files/styles/thumbnail/public/sanantonioisd.jpg
1214 Guadalupe St.,"San Antonio, TX",San Antonio, TX,JT Brackenridge Elementary,https://www.saisd.net/page/article/227,curbside pickup of breakfast and lunch from 10:30 a.m. to 12:30 p.m.,SA ISD,https://nowcastsa.com/sites/default/files/styles/thumbnail/public/sanantonioisd.jpg
318 Martin L. King Drive,"San Antonio, TX",San Antonio, TX,Douglass Academy,https://www.saisd.net/page/article/227,curbside pickup of breakfast and lunch from 10:30 a.m. to 12:30 p.m.,SA ISD,https://nowcastsa.com/sites/default/files/styles/thumbnail/public/sanantonioisd.jpg
530 Hoover Ave,"San Antonio, TX",San Antonio, TX,Graebner Elementary,https://www.saisd.net/page/article/227,curbside pickup of breakfast and lunch from 10:30 a.m. to 12:30 p.m.,SA ISD,https://nowcastsa.com/sites/default/files/styles/thumbnail/public/sanantonioisd.jpg
4826 Sea Breeze Drive,"San Antonio, TX",San Antonio, TX,Hirsch Elementary,https://www.saisd.net/page/article/227,curbside pickup of breakfast and lunch from 10:30 a.m. to 12:30 p.m.,SA ISD,https://nowcastsa.com/sites/default/files/styles/thumbnail/public/sanantonioisd.jpg
314 Astor St,"San Antonio, TX",San Antonio, TX,Japhet Academy,https://www.saisd.net/page/article/227,curbside pickup of breakfast and lunch from 10:30 a.m. to 12:30 p.m.,SA ISD,https://nowcastsa.com/sites/default/files/styles/thumbnail/public/sanantonioisd.jpg
107 Raleigh Pl,"San Antonio, TX",San Antonio, TX,Maverick Elementary,https://www.saisd.net/page/article/227,curbside pickup of breakfast and lunch from 10:30 a.m. to 12:30 p.m.,SA ISD,https://nowcastsa.com/sites/default/files/styles/thumbnail/public/sanantonioisd.jpg
9210 S. Presa St,"San Antonio, TX",San Antonio, TX,Mission Academy,https://www.saisd.net/page/article/227,curbside pickup of breakfast and lunch from 10:30 a.m. to 12:30 p.m.,SA ISD,https://nowcastsa.com/sites/default/files/styles/thumbnail/public/sanantonioisd.jpg
3501 Martin L. King Drive,"San Antonio, TX",San Antonio, TX,M.L. King Academy,https://www.saisd.net/page/article/227,curbside pickup of breakfast and lunch from 10:30 a.m. to 12:30 p.m.,SA ISD,https://nowcastsa.com/sites/default/files/styles/thumbnail/public/sanantonioisd.jpg
101 Kate Schenck Ave,"San Antonio, TX",San Antonio, TX,Schenck Elementary,https://www.saisd.net/page/article/227,curbside pickup of breakfast and lunch from 10:30 a.m. to 12:30 p.m.,SA ISD,https://nowcastsa.com/sites/default/files/styles/thumbnail/public/sanantonioisd.jpg
401 Berkshire,"San Antonio, TX",San Antonio, TX,Young Women’s Leadership Academy,https://www.saisd.net/page/article/227,curbside pickup of breakfast and lunch from 10:30 a.m. to 12:30 p.m.,SA ISD,https://nowcastsa.com/sites/default/files/styles/thumbnail/public/sanantonioisd.jpg
400 Eagleland Drive,"San Antonio, TX",San Antonio, TX,Brackenridge High School,https://www.saisd.net/page/article/227,curbside pickup of breakfast and lunch from 10:30 a.m. to 12:30 p.m.,SA ISD,https://nowcastsa.com/sites/default/files/styles/thumbnail/public/sanantonioisd.jpg
1002 Edwards St.,"San Antonio, TX",San Antonio, TX,Burbank High School,https://www.saisd.net/page/article/227,curbside pickup of breakfast and lunch from 10:30 a.m. to 12:30 p.m.,SA ISD,https://nowcastsa.com/sites/default/files/styles/thumbnail/public/sanantonioisd.jpg
701 Santa Monica Drive,"San Antonio, TX",San Antonio, TX,Edison High School,https://www.saisd.net/page/article/227,curbside pickup of breakfast and lunch from 10:30 a.m. to 12:30 p.m.,SA ISD,https://nowcastsa.com/sites/default/files/styles/thumbnail/public/sanantonioisd.jpg
637 N. Main Avenue,"San Antonio, TX",San Antonio, TX,Fox Tech High School,https://www.saisd.net/page/article/227,curbside pickup of breakfast and lunch from 10:30 a.m. to 12:30 p.m.,SA ISD,https://nowcastsa.com/sites/default/files/styles/thumbnail/public/sanantonioisd.jpg
3118 Elgin Ave,"San Antonio, TX",San Antonio, TX,Highlands High School,https://www.saisd.net/page/article/227,curbside pickup of breakfast and lunch from 10:30 a.m. to 12:30 p.m.,SA ISD,https://nowcastsa.com/sites/default/files/styles/thumbnail/public/sanantonioisd.jpg
723 Donaldson Ave.,"San Antonio, TX",San Antonio, TX,Jefferson High School,https://www.saisd.net/page/article/227,curbside pickup of breakfast and lunch from 10:30 a.m. to 12:30 p.m.,SA ISD,https://nowcastsa.com/sites/default/files/styles/thumbnail/public/sanantonioisd.jpg
1514 W. Cesar E. Chavez Blvd.,"San Antonio, TX",San Antonio, TX,Lanier High School,https://www.saisd.net/page/article/227,curbside pickup of breakfast and lunch from 10:30 a.m. to 12:30 p.m.,SA ISD,https://nowcastsa.com/sites/default/files/styles/thumbnail/public/sanantonioisd.jpg
4635 E. Houston St.,"San Antonio, TX",San Antonio, TX,Sam Houston High School,https://www.saisd.net/page/article/227,curbside pickup of breakfast and lunch from 10:30 a.m. to 12:30 p.m.,SA ISD,https://nowcastsa.com/sites/default/files/styles/thumbnail/public/sanantonioisd.jpg
1731 Dahlgreen,"San Antonio, TX",San Antonio, TX,Gardendale Elementary,https://www.eisd.net/…/F…/Health%20Update/Closure%20FAQs.pdf,drive-up Grab and Go meal at all Edgewood ISD campuses.  (Breakfast from 7:30 am – 9:30 am)  (Lunch from 11:30 am – 1:30 pm),Edgewood ISD,https://nowcastsa.com/sites/default/files/styles/thumbnail/public/edgewoodisd.png
2803 Castroville,"San Antonio, TX",San Antonio, TX,Henry B. Gonzalez Elementary,https://www.eisd.net/…/F…/Health%20Update/Closure%20FAQs.pdf,drive-up Grab and Go meal at all Edgewood ISD campuses.  (Breakfast from 7:30 am – 9:30 am)  (Lunch from 11:30 am – 1:30 pm),Edgewood ISD,https://nowcastsa.com/sites/default/files/styles/thumbnail/public/edgewoodisd.png
115 Las Palmas,"San Antonio, TX",San Antonio, TX,Las Palmas Elementary,https://www.eisd.net/…/F…/Health%20Update/Closure%20FAQs.pdf,drive-up Grab and Go meal at all Edgewood ISD campuses.  (Breakfast from 7:30 am – 9:30 am)  (Lunch from 11:30 am – 1:30 pm),Edgewood ISD,https://nowcastsa.com/sites/default/files/styles/thumbnail/public/edgewoodisd.png
400 Aurora Drive,"San Antonio, TX",San Antonio, TX,Loma Park Elementary,https://www.eisd.net/…/F…/Health%20Update/Closure%20FAQs.pdf,drive-up Grab and Go meal at all Edgewood ISD campuses.  (Breakfast from 7:30 am – 9:30 am)  (Lunch from 11:30 am – 1:30 pm),Edgewood ISD,https://nowcastsa.com/sites/default/files/styles/thumbnail/public/edgewoodisd.png
6515 W Commerce,"San Antonio, TX",San Antonio, TX,Lyndon B. Johnson Elementary,https://www.eisd.net/…/F…/Health%20Update/Closure%20FAQs.pdf,drive-up Grab and Go meal at all Edgewood ISD campuses.  (Breakfast from 7:30 am – 9:30 am)  (Lunch from 11:30 am – 1:30 pm),Edgewood ISD,https://nowcastsa.com/sites/default/files/styles/thumbnail/public/edgewoodisd.png
1507 Ceralvo,"San Antonio, TX",San Antonio, TX,Perales Elementary,https://www.eisd.net/…/F…/Health%20Update/Closure%20FAQs.pdf,drive-up Grab and Go meal at all Edgewood ISD campuses.  (Breakfast from 7:30 am – 9:30 am)  (Lunch from 11:30 am – 1:30 pm),Edgewood ISD,https://nowcastsa.com/sites/default/files/styles/thumbnail/public/edgewoodisd.png
3823 Fortuna,"San Antonio, TX",San Antonio, TX,Roosevelt Elementary,https://www.eisd.net/…/F…/Health%20Update/Closure%20FAQs.pdf,drive-up Grab and Go meal at all Edgewood ISD campuses.  (Breakfast from 7:30 am – 9:30 am)  (Lunch from 11:30 am – 1:30 pm),Edgewood ISD,https://nowcastsa.com/sites/default/files/styles/thumbnail/public/edgewoodisd.png
3011 Ruiz St,"San Antonio, TX",San Antonio, TX,Roy Cisneros Elementary,https://www.eisd.net/…/F…/Health%20Update/Closure%20FAQs.pdf,drive-up Grab and Go meal at all Edgewood ISD campuses.  (Breakfast from 7:30 am – 9:30 am)  (Lunch from 11:30 am – 1:30 pm),Edgewood ISD,https://nowcastsa.com/sites/default/files/styles/thumbnail/public/edgewoodisd.png
415 SW 36th Street,"San Antonio, TX",San Antonio, TX,Stafford Elementary,https://www.eisd.net/…/F…/Health%20Update/Closure%20FAQs.pdf,drive-up Grab and Go meal at all Edgewood ISD campuses.  (Breakfast from 7:30 am – 9:30 am)  (Lunch from 11:30 am – 1:30 pm),Edgewood ISD,https://nowcastsa.com/sites/default/files/styles/thumbnail/public/edgewoodisd.png
2525 SW Gen McMullen,"San Antonio, TX",San Antonio, TX,Winston Elementary,https://www.eisd.net/…/F…/Health%20Update/Closure%20FAQs.pdf,drive-up Grab and Go meal at all Edgewood ISD campuses.  (Breakfast from 7:30 am – 9:30 am)  (Lunch from 11:30 am – 1:30 pm),Edgewood ISD,https://nowcastsa.com/sites/default/files/styles/thumbnail/public/edgewoodisd.png
3300 Ruiz Street,"San Antonio, TX",San Antonio, TX,Cardenas ECC,https://www.eisd.net/…/F…/Health%20Update/Closure%20FAQs.pdf,drive-up Grab and Go meal at all Edgewood ISD campuses.  (Breakfast from 7:30 am – 9:30 am)  (Lunch from 11:30 am – 1:30 pm),Edgewood ISD,https://nowcastsa.com/sites/default/files/styles/thumbnail/public/edgewoodisd.png
611 SW 36th Street,"San Antonio, TX",San Antonio, TX,Stafford ECC,https://www.eisd.net/…/F…/Health%20Update/Closure%20FAQs.pdf,drive-up Grab and Go meal at all Edgewood ISD campuses.  (Breakfast from 7:30 am – 9:30 am)  (Lunch from 11:30 am – 1:30 pm),Edgewood ISD,https://nowcastsa.com/sites/default/files/styles/thumbnail/public/edgewoodisd.png
1626 W Thompson PL,"San Antonio, TX",San Antonio, TX,Brentwood Middle School,https://www.eisd.net/…/F…/Health%20Update/Closure%20FAQs.pdf,drive-up Grab and Go meal at all Edgewood ISD campuses.  (Breakfast from 7:30 am – 9:30 am)  (Lunch from 11:30 am – 1:30 pm),Edgewood ISD,https://nowcastsa.com/sites/default/files/styles/thumbnail/public/edgewoodisd.png
3306 Ruiz,"San Antonio, TX",San Antonio, TX,Gus Garcia Middle School,https://www.eisd.net/…/F…/Health%20Update/Closure%20FAQs.pdf,drive-up Grab and Go meal at all Edgewood ISD campuses.  (Breakfast from 7:30 am – 9:30 am)  (Lunch from 11:30 am – 1:30 pm),Edgewood ISD,https://nowcastsa.com/sites/default/files/styles/thumbnail/public/edgewoodisd.png
627 S Acme Rd,"San Antonio, TX",San Antonio, TX,Wrenn Middle School,https://www.eisd.net/…/F…/Health%20Update/Closure%20FAQs.pdf,drive-up Grab and Go meal at all Edgewood ISD campuses.  (Breakfast from 7:30 am – 9:30 am)  (Lunch from 11:30 am – 1:30 pm),Edgewood ISD,https://nowcastsa.com/sites/default/files/styles/thumbnail/public/edgewoodisd.png
607 SW 34th St,"San Antonio, TX",San Antonio, TX,Edgewood Fine Arts Academy,https://www.eisd.net/…/F…/Health%20Update/Closure%20FAQs.pdf,drive-up Grab and Go meal at all Edgewood ISD campuses.  (Breakfast from 7:30 am – 9:30 am)  (Lunch from 11:30 am – 1:30 pm),Edgewood ISD,https://nowcastsa.com/sites/default/files/styles/thumbnail/public/edgewoodisd.png
607 SW 34th St,"San Antonio, TX",San Antonio, TX,Emma Frey Alternative School,https://www.eisd.net/…/F…/Health%20Update/Closure%20FAQs.pdf,drive-up Grab and Go meal at all Edgewood ISD campuses.  (Breakfast from 7:30 am – 9:30 am)  (Lunch from 11:30 am – 1:30 pm),Edgewood ISD,https://nowcastsa.com/sites/default/files/styles/thumbnail/public/edgewoodisd.png
1922 S Gen McMullen,"San Antonio, TX",San Antonio, TX,John F. Kennedy High School,https://www.eisd.net/…/F…/Health%20Update/Closure%20FAQs.pdf,drive-up Grab and Go meal at all Edgewood ISD campuses.  (Breakfast from 7:30 am – 9:30 am)  (Lunch from 11:30 am – 1:30 pm),Edgewood ISD,https://nowcastsa.com/sites/default/files/styles/thumbnail/public/edgewoodisd.png
1227 Memorial St,"San Antonio, TX",San Antonio, TX,Memorial High School,https://www.eisd.net/…/F…/Health%20Update/Closure%20FAQs.pdf,drive-up Grab and Go meal at all Edgewood ISD campuses.  (Breakfast from 7:30 am – 9:30 am)  (Lunch from 11:30 am – 1:30 pm),Edgewood ISD,https://nowcastsa.com/sites/default/files/styles/thumbnail/public/edgewoodisd.png
422 W HUTCHINS PL,"San Antonio, TX",San Antonio, TX,Terrell Wells Middle School,https://www.facebook.com/…/a.54852505520…/3088466911206232/…,curbside pickup of breakfast 7 a.m. to 8:30 a.m. and lunch from 11:00 a.m. to 12:30 p.m.,Harlandale ISD,https://nowcastsa.com/sites/default/files/styles/thumbnail/public/harlandaleisd.jpg
743 W Southcross Blvd,"San Antonio, TX",San Antonio, TX,Leal Middle School,https://www.facebook.com/…/a.54852505520…/3088466911206232/…,curbside pickup of breakfast 7 a.m. to 8:30 a.m. and lunch from 11:00 a.m. to 12:30 p.m.,Harlandale ISD,https://nowcastsa.com/sites/default/files/styles/thumbnail/public/harlandaleisd.jpg
300 W Huff Ave,"San Antonio, TX",San Antonio, TX,Harlandale Middle School,https://www.facebook.com/…/a.54852505520…/3088466911206232/…,curbside pickup of breakfast 7 a.m. to 8:30 a.m. and lunch from 11:00 a.m. to 12:30 p.m.,Harlandale ISD,https://nowcastsa.com/sites/default/files/styles/thumbnail/public/harlandaleisd.jpg
422 E Ashley Rd,"San Antonio, TX",San Antonio, TX,Kingsborough Middle School,https://www.facebook.com/…/a.54852505520…/3088466911206232/…,curbside pickup of breakfast 7 a.m. to 8:30 a.m. and lunch from 11:00 a.m. to 12:30 p.m.,Harlandale ISD,https://nowcastsa.com/sites/default/files/styles/thumbnail/public/harlandaleisd.jpg
11843 Vance Jackson,"San Antonio, TX",San Antonio, TX,Hobby MS,https://www.nisd.net/…/nisd-offer-food-kits-and-online-inst…,Each car or vehicle will be able to pick up one food and supply kit. 8 - 10 a.m. and 4 - 6 p.m.,Northside ISD,https://nowcastsa.com/sites/default/files/styles/thumbnail/public/northsideisd_0.jpg
1256 Pinn Rd,"San Antonio, TX",San Antonio, TX,Jones MS,https://www.nisd.net/…/nisd-offer-food-kits-and-online-inst…,Each car or vehicle will be able to pick up one food and supply kit. 8 - 10 a.m. and 4 - 6 p.m.,Northside ISD,https://nowcastsa.com/sites/default/files/styles/thumbnail/public/northsideisd_0.jpg
200 Grosenbacher N,"San Antonio, TX",San Antonio, TX,Luna MS,https://www.nisd.net/…/nisd-offer-food-kits-and-online-inst…,Each car or vehicle will be able to pick up one food and supply kit. 8 - 10 a.m. and 4 - 6 p.m.,Northside ISD,https://nowcastsa.com/sites/default/files/styles/thumbnail/public/northsideisd_0.jpg
5227 Evers Rd,"San Antonio, TX",San Antonio, TX,Neff MS,https://www.nisd.net/…/nisd-offer-food-kits-and-online-inst…,Each car or vehicle will be able to pick up one food and supply kit. 8 - 10 a.m. and 4 - 6 p.m.,Northside ISD,https://nowcastsa.com/sites/default/files/styles/thumbnail/public/northsideisd_0.jpg
201 Hunt Lane,"San Antonio, TX",San Antonio, TX,Pease MS,https://www.nisd.net/…/nisd-offer-food-kits-and-online-inst…,Each car or vehicle will be able to pick up one food and supply kit. 8 - 10 a.m. and 4 - 6 p.m.,Northside ISD,https://nowcastsa.com/sites/default/files/styles/thumbnail/public/northsideisd_0.jpg
1400 Cedarhurst,"San Antonio, TX",San Antonio, TX,Rayburn MS,https://www.nisd.net/…/nisd-offer-food-kits-and-online-inst…,Each car or vehicle will be able to pick up one food and supply kit. 8 - 10 a.m. and 4 - 6 p.m.,Northside ISD,https://nowcastsa.com/sites/default/files/styles/thumbnail/public/northsideisd_0.jpg
3630 Callaghan,"San Antonio, TX",San Antonio, TX,Ross MS,https://www.nisd.net/…/nisd-offer-food-kits-and-online-inst…,Each car or vehicle will be able to pick up one food and supply kit. 8 - 10 a.m. and 4 - 6 p.m.,Northside ISD,https://nowcastsa.com/sites/default/files/styles/thumbnail/public/northsideisd_0.jpg
6558 Horn Blvd,"San Antonio, TX",San Antonio, TX,Rudder MS,https://www.nisd.net/…/nisd-offer-food-kits-and-online-inst…,Each car or vehicle will be able to pick up one food and supply kit. 8 - 10 a.m. and 4 - 6 p.m.,Northside ISD,https://nowcastsa.com/sites/default/files/styles/thumbnail/public/northsideisd_0.jpg
13200 Skyhawk,"San Antonio, TX",San Antonio, TX,Stinson MS,https://www.nisd.net/…/nisd-offer-food-kits-and-online-inst…,Each car or vehicle will be able to pick up one food and supply kit. 8 - 10 a.m. and 4 - 6 p.m.,Northside ISD,https://nowcastsa.com/sites/default/files/styles/thumbnail/public/northsideisd_0.jpg
2120 N. Ellison,"San Antonio, TX",San Antonio, TX,Vale MS,https://www.nisd.net/…/nisd-offer-food-kits-and-online-inst…,Each car or vehicle will be able to pick up one food and supply kit. 8 - 10 a.m. and 4 - 6 p.m.,Northside ISD,https://nowcastsa.com/sites/default/files/styles/thumbnail/public/northsideisd_0.jpg
9410 Timber Path,"San Antonio, TX",San Antonio, TX,Zachry MS,https://www.nisd.net/…/nisd-offer-food-kits-and-online-inst…,Each car or vehicle will be able to pick up one food and supply kit. 8 - 10 a.m. and 4 - 6 p.m.,Northside ISD,https://nowcastsa.com/sites/default/files/styles/thumbnail/public/northsideisd_0.jpg
1725 Palo Alto Rd,"San Antonio, TX",San Antonio, TX,Palo Alto ES,https://www.facebook.com/…/a.4252205621…/10159693678282178/…,curbside pickup of breakfast 7:30 a.m. to 9:00 a.m. and lunch from 11:00 a.m. to 12:30 p.m.,South San ISD,https://nowcastsa.com/sites/default/files/styles/thumbnail/public/soutsanisd.png
500 Price Ave,"San Antonio, TX",San Antonio, TX,Carrillo ES,https://www.facebook.com/…/a.4252205621…/10159693678282178/…,curbside pickup of breakfast 7:30 a.m. to 9:00 a.m. and lunch from 11:00 a.m. to 12:30 p.m.,South San ISD,https://nowcastsa.com/sites/default/files/styles/thumbnail/public/soutsanisd.png
7138 Five Palms Dr,"San Antonio, TX",San Antonio, TX,Five Palms ES,https://www.facebook.com/…/a.4252205621…/10159693678282178/…,curbside pickup of breakfast 7:30 a.m. to 9:00 a.m. and lunch from 11:00 a.m. to 12:30 p.m.,South San ISD,https://nowcastsa.com/sites/default/files/styles/thumbnail/public/soutsanisd.png
7811 Kindred St,"San Antonio, TX",San Antonio, TX,Kindred ES,https://www.facebook.com/…/a.4252205621…/10159693678282178/…,curbside pickup of breakfast 7:30 a.m. to 9:00 a.m. and lunch from 11:00 a.m. to 12:30 p.m.,South San ISD,https://nowcastsa.com/sites/default/files/styles/thumbnail/public/soutsanisd.png
2250 Pue Rd,"San Antonio, TX",San Antonio, TX,Big Country Elementary School,https://www.facebook.com/…/a.3999011730…/10157436915188068/…,curbside pickup of breakfast 7 a.m. to 8:30 a.m. and lunch from 11:00 a.m. to 1:00 p.m.,Southwest ISD,https://nowcastsa.com/sites/default/files/styles/thumbnail/public/southwestisd.jpg
3022 Reforma Dr,"San Antonio, TX",San Antonio, TX,Bob Hope Elementary School,https://www.facebook.com/…/a.3999011730…/10157436915188068/…,curbside pickup of breakfast 7 a.m. to 8:30 a.m. and lunch from 11:00 a.m. to 1:00 p.m.,Southwest ISD,https://nowcastsa.com/sites/default/files/styles/thumbnail/public/southwestisd.jpg
5102 Trading Post,"San Antonio, TX",San Antonio, TX,Hidden Cove Elementary School,https://www.facebook.com/…/a.3999011730…/10157436915188068/…,curbside pickup of breakfast 7 a.m. to 8:30 a.m. and lunch from 11:00 a.m. to 1:00 p.m.,Southwest ISD,https://nowcastsa.com/sites/default/files/styles/thumbnail/public/southwestisd.jpg
8911 Excellence Dr,"San Antonio, TX",San Antonio, TX,Medio Creek Elementary School,https://www.facebook.com/…/a.3999011730…/10157436915188068/…,curbside pickup of breakfast 7 a.m. to 8:30 a.m. and lunch from 11:00 a.m. to 1:00 p.m.,Southwest ISD,https://nowcastsa.com/sites/default/files/styles/thumbnail/public/southwestisd.jpg
5902 Fishers Bend St,"San Antonio, TX",San Antonio, TX,Sky Harbour Elementary School,https://www.facebook.com/…/a.3999011730…/10157436915188068/…,curbside pickup of breakfast 7 a.m. to 8:30 a.m. and lunch from 11:00 a.m. to 1:00 p.m.,Southwest ISD,https://nowcastsa.com/sites/default/files/styles/thumbnail/public/southwestisd.jpg
11914 Dragon Ln,"San Antonio, TX",San Antonio, TX,Southwest Elementary school,https://www.facebook.com/…/a.3999011730…/10157436915188068/…,curbside pickup of breakfast 7 a.m. to 8:30 a.m. and lunch from 11:00 a.m. to 1:00 p.m.,Southwest ISD,https://nowcastsa.com/sites/default/files/styles/thumbnail/public/southwestisd.jpg
5311 Merlin Drive,"San Antonio, TX",San Antonio, TX,Camelot Elementary,https://www.neisd.net/site/default.aspx…,Curbside meal sites will be open from 11:30 a.m. – 1:30 p.m. daily,North East ISD,https://nowcastsa.com/sites/default/files/styles/thumbnail/public/northeastisd.jpg
200 Lemonwood,"San Antonio, TX",San Antonio, TX,Castle Hills Elementary,https://www.neisd.net/site/default.aspx…,Curbside meal sites will be open from 11:30 a.m. – 1:30 p.m. daily,North East ISD,https://nowcastsa.com/sites/default/files/styles/thumbnail/public/northeastisd.jpg
4311 Clear Spring,"San Antonio, TX",San Antonio, TX,Clear Spring Elementary,https://www.neisd.net/site/default.aspx…,Curbside meal sites will be open from 11:30 a.m. – 1:30 p.m. daily,North East ISD,https://nowcastsa.com/sites/default/files/styles/thumbnail/public/northeastisd.jpg
302 Heimer Road,"San Antonio, TX",San Antonio, TX,Coker Elementary,https://www.neisd.net/site/default.aspx…,Curbside meal sites will be open from 11:30 a.m. – 1:30 p.m. daily,North East ISD,https://nowcastsa.com/sites/default/files/styles/thumbnail/public/northeastisd.jpg
2627 Kerrybrook Court,"San Antonio, TX",San Antonio, TX,Colonial Hills Elementary,https://www.neisd.net/site/default.aspx…,Curbside meal sites will be open from 11:30 a.m. – 1:30 p.m. daily,North East ISD,https://nowcastsa.com/sites/default/files/styles/thumbnail/public/northeastisd.jpg
7235 Dewhurst Road,"San Antonio, TX",San Antonio, TX,Dellview Elementary,https://www.neisd.net/site/default.aspx…,Curbside meal sites will be open from 11:30 a.m. – 1:30 p.m. daily,North East ISD,https://nowcastsa.com/sites/default/files/styles/thumbnail/public/northeastisd.jpg
4415 Bloomdale,"San Antonio, TX",San Antonio, TX,East Terrell Hills Elementary,https://www.neisd.net/site/default.aspx…,Curbside meal sites will be open from 11:30 a.m. – 1:30 p.m. daily,North East ISD,https://nowcastsa.com/sites/default/files/styles/thumbnail/public/northeastisd.jpg
12634 El Sendero,"San Antonio, TX",San Antonio, TX,El Dorado Elementary,https://www.neisd.net/site/default.aspx…,Curbside meal sites will be open from 11:30 a.m. – 1:30 p.m. daily,North East ISD,https://nowcastsa.com/sites/default/files/styles/thumbnail/public/northeastisd.jpg
6111 Fox Creek,"San Antonio, TX",San Antonio, TX,"Fox Run Elementary,",https://www.neisd.net/site/default.aspx…,Curbside meal sites will be open from 11:30 a.m. – 1:30 p.m. daily,North East ISD,https://nowcastsa.com/sites/default/files/styles/thumbnail/public/northeastisd.jpg
10727 Memory Lane,"San Antonio, TX",San Antonio, TX,Harmony Hills Elementary,https://www.neisd.net/site/default.aspx…,Curbside meal sites will be open from 11:30 a.m. – 1:30 p.m. daily,North East ISD,https://nowcastsa.com/sites/default/files/styles/thumbnail/public/northeastisd.jpg
16311 Huebner,"San Antonio, TX",San Antonio, TX,Huebner Elementary,https://www.neisd.net/site/default.aspx…,Curbside meal sites will be open from 11:30 a.m. – 1:30 p.m. daily,North East ISD,https://nowcastsa.com/sites/default/files/styles/thumbnail/public/northeastisd.jpg
1701 Jackson-Keller,"San Antonio, TX",San Antonio, TX,Jackson-Keller Elementary,https://www.neisd.net/site/default.aspx…,Curbside meal sites will be open from 11:30 a.m. – 1:30 p.m. daily,North East ISD,https://nowcastsa.com/sites/default/files/styles/thumbnail/public/northeastisd.jpg
1802 Larkspur,"San Antonio, TX",San Antonio, TX,Larkspur Elementary,https://www.neisd.net/site/default.aspx…,Curbside meal sites will be open from 11:30 a.m. – 1:30 p.m. daily,North East ISD,https://nowcastsa.com/sites/default/files/styles/thumbnail/public/northeastisd.jpg
15806 O’Connor,"San Antonio, TX",San Antonio, TX,Longs Creek Elementary,https://www.neisd.net/site/default.aspx…,Curbside meal sites will be open from 11:30 a.m. – 1:30 p.m. daily,North East ISD,https://nowcastsa.com/sites/default/files/styles/thumbnail/public/northeastisd.jpg
7047 Montgomery Drive,"San Antonio, TX",San Antonio, TX,Montgomery Elementary,https://www.neisd.net/site/default.aspx…,Curbside meal sites will be open from 11:30 a.m. – 1:30 p.m. daily,North East ISD,https://nowcastsa.com/sites/default/files/styles/thumbnail/public/northeastisd.jpg
13901 Higgins Road,"San Antonio, TX",San Antonio, TX,Northern Hills Elementary,https://www.neisd.net/site/default.aspx…,Curbside meal sites will be open from 11:30 a.m. – 1:30 p.m. daily,North East ISD,https://nowcastsa.com/sites/default/files/styles/thumbnail/public/northeastisd.jpg
519 Pike Road,"San Antonio, TX",San Antonio, TX,Northwood Elementary,https://www.neisd.net/site/default.aspx…,Curbside meal sites will be open from 11:30 a.m. – 1:30 p.m. daily,North East ISD,https://nowcastsa.com/sites/default/files/styles/thumbnail/public/northeastisd.jpg
3250 Nacogdoches Road,"San Antonio, TX",San Antonio, TX,Oak Grove Elementary,https://www.neisd.net/site/default.aspx…,Curbside meal sites will be open from 11:30 a.m. – 1:30 p.m. daily,North East ISD,https://nowcastsa.com/sites/default/files/styles/thumbnail/public/northeastisd.jpg
2800 Hunters Green,"San Antonio, TX",San Antonio, TX,Oak Meadow Elementary,https://www.neisd.net/site/default.aspx…,Curbside meal sites will be open from 11:30 a.m. – 1:30 p.m. daily,North East ISD,https://nowcastsa.com/sites/default/files/styles/thumbnail/public/northeastisd.jpg
1103 Allena,"San Antonio, TX",San Antonio, TX,Olmos Elementary,https://www.neisd.net/site/default.aspx…,Curbside meal sites will be open from 11:30 a.m. – 1:30 p.m. daily,North East ISD,https://nowcastsa.com/sites/default/files/styles/thumbnail/public/northeastisd.jpg
16650 Redland Road,"San Antonio, TX",San Antonio, TX,Redland Oaks Elementary,https://www.neisd.net/site/default.aspx…,Curbside meal sites will be open from 11:30 a.m. – 1:30 p.m. daily,North East ISD,https://nowcastsa.com/sites/default/files/styles/thumbnail/public/northeastisd.jpg
10222 Broadway,"San Antonio, TX",San Antonio, TX,Regency Place Elementary,https://www.neisd.net/site/default.aspx…,Curbside meal sites will be open from 11:30 a.m. – 1:30 p.m. daily,North East ISD,https://nowcastsa.com/sites/default/files/styles/thumbnail/public/northeastisd.jpg
8223 N. McCullough,"San Antonio, TX",San Antonio, TX,Ridgeview Elementary,https://www.neisd.net/site/default.aspx…,Curbside meal sites will be open from 11:30 a.m. – 1:30 p.m. daily,North East ISD,https://nowcastsa.com/sites/default/files/styles/thumbnail/public/northeastisd.jpg
5933 Royal Ridge,"San Antonio, TX",San Antonio, TX,Royal Ridge Elementary,https://www.neisd.net/site/default.aspx…,Curbside meal sites will be open from 11:30 a.m. – 1:30 p.m. daily,North East ISD,https://nowcastsa.com/sites/default/files/styles/thumbnail/public/northeastisd.jpg
2569 NE Loop 410,"San Antonio, TX",San Antonio, TX,Serna Elementary,https://www.neisd.net/site/default.aspx…,Curbside meal sites will be open from 11:30 a.m. – 1:30 p.m. daily,North East ISD,https://nowcastsa.com/sites/default/files/styles/thumbnail/public/northeastisd.jpg
5222 Stahl Road,"San Antonio, TX",San Antonio, TX,Stahl Elementary,https://www.neisd.net/site/default.aspx…,Curbside meal sites will be open from 11:30 a.m. – 1:30 p.m. daily,North East ISD,https://nowcastsa.com/sites/default/files/styles/thumbnail/public/northeastisd.jpg
5100 Knoll Creek,"San Antonio, TX",San Antonio, TX,Steubing Ranch Elementary,https://www.neisd.net/site/default.aspx…,Curbside meal sites will be open from 11:30 a.m. – 1:30 p.m. daily,North East ISD,https://nowcastsa.com/sites/default/files/styles/thumbnail/public/northeastisd.jpg
4618 Walzem Road,"San Antonio, TX",San Antonio, TX,Walzem Elementary,https://www.neisd.net/site/default.aspx…,Curbside meal sites will be open from 11:30 a.m. – 1:30 p.m. daily,North East ISD,https://nowcastsa.com/sites/default/files/styles/thumbnail/public/northeastisd.jpg
3250 Thousand Oaks,"San Antonio, TX",San Antonio, TX,Wetmore Elementary,https://www.neisd.net/site/default.aspx…,Curbside meal sites will be open from 11:30 a.m. – 1:30 p.m. daily,North East ISD,https://nowcastsa.com/sites/default/files/styles/thumbnail/public/northeastisd.jpg
6523 Cascade,"San Antonio, TX",San Antonio, TX,Wilshire Elementary,https://www.neisd.net/site/default.aspx…,Curbside meal sites will be open from 11:30 a.m. – 1:30 p.m. daily,North East ISD,https://nowcastsa.com/sites/default/files/styles/thumbnail/public/northeastisd.jpg
465 Faircrest,"San Antonio, TX",San Antonio, TX,Windcrest Elementary,https://www.neisd.net/site/default.aspx…,Curbside meal sites will be open from 11:30 a.m. – 1:30 p.m. daily,North East ISD,https://nowcastsa.com/sites/default/files/styles/thumbnail/public/northeastisd.jpg
5602 Fountainwood,"San Antonio, TX",San Antonio, TX,Woodstone Elementary,https://www.neisd.net/site/default.aspx…,Curbside meal sites will be open from 11:30 a.m. – 1:30 p.m. daily,North East ISD,https://nowcastsa.com/sites/default/files/styles/thumbnail/public/northeastisd.jpg
9142 FM78,"Converse, TX",Converse, TX,Judson High School,https://www.judsonisd.org/site/default.aspx…,curbside pickup of breakfast 8:00 a.m. to 9:00 a.m. and lunch from 11:00 a.m. to 12:00 p.m.,Judson ISD,https://nowcastsa.com/sites/default/files/styles/thumbnail/public/judsonisd.png
3000 N Foster Rd,"San Antonio, TX",San Antonio, TX,Wagner High School,https://www.judsonisd.org/site/default.aspx…,curbside pickup of breakfast 8:00 a.m. to 9:00 a.m. and lunch from 11:00 a.m. to 12:00 p.m.,Judson ISD,https://nowcastsa.com/sites/default/files/styles/thumbnail/public/judsonisd.png
8439 Athenian Dr,Universal City,Universal City,TX,Olympia Elementary School,https://www.judsonisd.org/site/default.aspx…,curbside pickup of breakfast 8:00 a.m. to 9:00 a.m. and lunch from 11:00 a.m. to 12:00 p.m.,Judson ISD,https://nowcastsa.com/sites/default/files/styles/thumbnail/public/judsonisd.png
2440 Ackerman Rd,"San Antonio, TX",San Antonio, TX,Hopkins Elementary School,https://www.judsonisd.org/site/default.aspx…,curbside pickup of breakfast 8:00 a.m. to 9:00 a.m. and lunch from 11:00 a.m. to 12:00 p.m.,Judson ISD,https://nowcastsa.com/sites/default/files/styles/thumbnail/public/judsonisd.png
3635 Candleglenn,"San Antonio, TX",San Antonio, TX,Candlewood Elementary School,https://www.judsonisd.org/site/default.aspx…,curbside pickup of breakfast 8:00 a.m. to 9:00 a.m. and lunch from 11:00 a.m. to 12:00 p.m.,Judson ISD,https://nowcastsa.com/sites/default/files/styles/thumbnail/public/judsonisd.png
7607 N New Braunfels Ave,"San Antonio, TX",San Antonio, TX,Alamo Heights Junior School,http://www.ahisd.net/ne…/what_s_new/drive-_thru_meal_service,Curbside pickup 8:00AM - 10:00AM,Alamo Heights ISD,https://nowcastsa.com/sites/default/files/styles/thumbnail/public/alamoheightsisd.png
3223 S Loop 1604 E,"San Antonio, TX",#REF!,3735 E Commerce St,Southside Heritage Elementary,https://www.facebook.com/southsideisd/posts/2904315356258071?__xts__[0]=68.ARBM6Xs2dosOVybQgxTcTilt1b3OYCJYqf8OD47-Er-PXmsIfJLyesrfD8JQDmsaafmyW4_gKGXoeLqNbbNnpOB_oJGv9LckxrbvQ1Igjfr1CXj7C5L1nfcYCfh-gwmz3mV7yZpdGcT1Tb7QNArUf5nGO6Bhhqr-D9dYnwKTbgLwM-m3hAbBhWbMTeyshNHdCDYtLXTEWM7r1YBsBxwB_tBn_ncpGBBILWqeLy0qInUrnbKXAt99ZEcomFXmF3-l-ayh6RI6t46tXi1XeoolBGXZkxrnZP9db-rmLhRa1CQLNnL76VK5grdjalO9Dd2Y3aGdM47C_16kc-ppMrF00g&__tn__=-R,Curbside pickup at 12:00PM,Southside ISD,https://nowcastsa.com/sites/default/files/styles/thumbnail/public/southsideisd.jpg
19190 US-281 South #2,"San Antonio, TX",San Antonio, TX,Southside High School,https://www.facebook.com/southsideisd/posts/2904315356258071?__xts__[0]=68.ARBM6Xs2dosOVybQgxTcTilt1b3OYCJYqf8OD47-Er-PXmsIfJLyesrfD8JQDmsaafmyW4_gKGXoeLqNbbNnpOB_oJGv9LckxrbvQ1Igjfr1CXj7C5L1nfcYCfh-gwmz3mV7yZpdGcT1Tb7QNArUf5nGO6Bhhqr-D9dYnwKTbgLwM-m3hAbBhWbMTeyshNHdCDYtLXTEWM7r1YBsBxwB_tBn_ncpGBBILWqeLy0qInUrnbKXAt99ZEcomFXmF3-l-ayh6RI6t46tXi1XeoolBGXZkxrnZP9db-rmLhRa1CQLNnL76VK5grdjalO9Dd2Y3aGdM47C_16kc-ppMrF00g&__tn__=-R,Curbside pickup at 12:00PM,Southside ISD,https://nowcastsa.com/sites/default/files/styles/thumbnail/public/southsideisd.jpg
7173 FM 1628,"San Antonio, TX",San Antonio, TX,East Central High School,https://www.ecisd.net/Page/12262,curbside pickup of breakfast 7 a.m. to 9:00 a.m. and lunch from 11:00 a.m. to 1:00 p.m.,East Central ISD,https://nowcastsa.com/sites/default/files/styles/thumbnail/public/eastcentralisd.jpg
7284 FM 1628,"San Antonio, TX",San Antonio, TX,CAST Lead High School,https://www.ecisd.net/Page/12262,curbside pickup of breakfast 7 a.m. to 9:00 a.m. and lunch from 11:00 a.m. to 1:00 p.m.,East Central ISD,https://nowcastsa.com/sites/default/files/styles/thumbnail/public/eastcentralisd.jpg
8004 New Sulphur Springs Rd,"San Antonio, TX",San Antonio, TX,Heritage Middle School,https://www.ecisd.net/Page/12262,curbside pickup of breakfast 7 a.m. to 9:00 a.m. and lunch from 11:00 a.m. to 1:00 p.m.,East Central ISD,https://nowcastsa.com/sites/default/files/styles/thumbnail/public/eastcentralisd.jpg
5903 SE Loop 410,"San Antonio, TX",San Antonio, TX,Legacy Middle School,https://www.ecisd.net/Page/12262,curbside pickup of breakfast 7 a.m. to 9:00 a.m. and lunch from 11:00 a.m. to 1:00 p.m.,East Central ISD,https://nowcastsa.com/sites/default/files/styles/thumbnail/public/eastcentralisd.jpg
10625 Green Lake St.,"San Antonio, TX",San Antonio, TX,Harmony Elementary,https://www.ecisd.net/Page/12262,curbside pickup of breakfast 7 a.m. to 9:00 a.m. and lunch from 11:00 a.m. to 1:00 p.m.,East Central ISD,https://nowcastsa.com/sites/default/files/styles/thumbnail/public/eastcentralisd.jpg
3736 SE Military Dr,"San Antonio, TX",San Antonio, TX,Highland Forest Elementary,https://www.ecisd.net/Page/12262,curbside pickup of breakfast 7 a.m. to 9:00 a.m. and lunch from 11:00 a.m. to 1:00 p.m.,East Central ISD,https://nowcastsa.com/sites/default/files/styles/thumbnail/public/eastcentralisd.jpg
7806 New Sulphur Springs Rd,"San Antonio, TX",San Antonio, TX,Oak Crest Elementary,https://www.ecisd.net/Page/12262,curbside pickup of breakfast 7 a.m. to 9:00 a.m. and lunch from 11:00 a.m. to 1:00 p.m.,East Central ISD,https://nowcastsa.com/sites/default/files/styles/thumbnail/public/eastcentralisd.jpg
3966 E. Southcross,"San Antonio, TX",San Antonio, TX,Pecan Valley Elementary,https://www.ecisd.net/Page/12262,curbside pickup of breakfast 7 a.m. to 9:00 a.m. and lunch from 11:00 a.m. to 1:00 p.m.,East Central ISD,https://nowcastsa.com/sites/default/files/styles/thumbnail/public/eastcentralisd.jpg
3602 WW White Rd.,"San Antonio, TX",San Antonio, TX,Salado Elementary,https://www.ecisd.net/Page/12262,curbside pickup of breakfast 7 a.m. to 9:00 a.m. and lunch from 11:00 a.m. to 1:00 p.m.,East Central ISD,https://nowcastsa.com/sites/default/files/styles/thumbnail/public/eastcentralisd.jpg
6126 Sinclair Rd.,"San Antonio, TX",San Antonio, TX,Sinclair Elementary,https://www.ecisd.net/Page/12262,curbside pickup of breakfast 7 a.m. to 9:00 a.m. and lunch from 11:00 a.m. to 1:00 p.m.,East Central ISD,https://nowcastsa.com/sites/default/files/styles/thumbnail/public/eastcentralisd.jpg
2885 FM 1346,"San Antonio, TX",San Antonio, TX,Tradition Elementary,https://www.ecisd.net/Page/12262,curbside pickup of breakfast 7 a.m. to 9:00 a.m. and lunch from 11:00 a.m. to 1:00 p.m.,East Central ISD,https://nowcastsa.com/sites/default/files/styles/thumbnail/public/eastcentralisd.jpg
369 FM 1346 South,"La Vernia, TX",La Vernia, TX,Lavernia Middle School,https://www.lvisd.org//site/default.aspx?PageType=3&DomainID=4&ModuleInstanceID=11&ViewID=6446EE88-D30C-497E-9316-3F8874B3E108&RenderLoc=0&FlexDataID=5182&PageID=1,curbside pickup of breakfast 7:30 a.m. to 8:00 a.m. and lunch from 11:00 a.m. to 12:00 a.m.,La Vernia ISD,https://nowcastsa.com/sites/default/files/styles/thumbnail/public/lavernia_isd.png?itok=dpxP5qzH
8365 FM 471 South,"Castroville, TX",Castroville, TX,Medina Valley High School,https://www.mvisd.com/,curbside pickup of breakfast 7:30 a.m. to 8:30 a.m. and lunch from 11:00 a.m. to 12:30 a.m.,Medina Valley ISD,https://nowcastsa.com/sites/default/files/styles/thumbnail/public/medina_valley_isd.png?itok=Na9d7rml
16069 Uvalde St,"Lacoste, TX",Lacoste, TX,LaCoste Elementary School,https://www.mvisd.com/,curbside pickup of breakfast 7:30 a.m. to 8:30 a.m. and lunch from 11:00 a.m. to 12:30 a.m.,Medina Valley ISD,https://nowcastsa.com/sites/default/files/styles/thumbnail/public/medina_valley_isd.png?itok=Na9d7rml
12045 Luckey River,"San Antonio, TX",San Antonio, TX,Luckey Ranch Elementary School,https://www.mvisd.com/,curbside pickup of breakfast 7:30 a.m. to 8:30 a.m. and lunch from 11:00 a.m. to 12:30 a.m.,Medina Valley ISD,https://nowcastsa.com/sites/default/files/styles/thumbnail/public/medina_valley_isd.png?itok=Na9d7rml
190 CR 381 South,"San Antonio, TX",San Antonio, TX,Potranco Elementary School,https://www.mvisd.com/,curbside pickup of breakfast 7:30 a.m. to 8:30 a.m. and lunch from 11:00 a.m. to 12:30 a.m.,Medina Valley ISD,https://nowcastsa.com/sites/default/files/styles/thumbnail/public/medina_valley_isd.png?itok=Na9d7rml
701 Curtiss Ave,"Schertz, TX",Schertz, TX,Schertz Elementary School,https://www.scuc.txed.net/page/32560,curbside pickup of breakfast 7:30 a.m. to 8:30 a.m. and lunch from 11:30 a.m. to 1:00 p.m.,Schertz-Cibolo-Universal City ISD,https://nowcastsa.com/sites/default/files/styles/thumbnail/public/schertz-cibolo-universal_city_isd.jpg?itok=4QFJW5gb