Address,City,Name,URL,Program De,School dis,Image,result_num,status,formatted_,place_id,location_t,latlong
1011 Vance Jackson Rd,"San Antonio, TX",Pepperidge Apts,https://www.saisd.net/page/article/227,Meals droped of by school bus from 9:30 a.m. to 10:00 a.m.,SA ISD,https://nowcastsa.com/sites/default/files/styles/thumbnail/public/saisd_bus_food_stops.png,"0",OK,"1011 Vance Jackson Rd, San Antonio, TX 78201, USA",ChIJqSeoS05eXIYRDe8AA3IcU4U,ROOFTOP,"29.4817465,-98.53527330000001"
615 Vance Jackson Rd,"San Antonio, TX",Fleetwood apts,https://www.saisd.net/page/article/227,Meals droped of by school bus from 10:10 a.m. to 10:40 a.m.,SA ISD,https://nowcastsa.com/sites/default/files/styles/thumbnail/public/saisd_bus_food_stops.png,"0",OK,"615 Vance Jackson Rd, San Antonio, TX 78201, USA",ChIJvR2xvlFeXIYR5mCyxaxcVTE,ROOFTOP,"29.4783248,-98.5352827"
423 Vance Jackson Rd,"San Antonio, TX",Tradewinds Villas Apts,https://www.saisd.net/page/article/227,Meals droped of by school bus from 10:50 a.m. to 11:20 a.m.,SA ISD,https://nowcastsa.com/sites/default/files/styles/thumbnail/public/saisd_bus_food_stops.png,"0",OK,"423 Vance Jackson Rd, San Antonio, TX 78201, USA",ChIJ68vnplFeXIYRw3TuRlqYYJw,ROOFTOP,"29.4775938,-98.53599039999999"
315 Vance Jackson Rd,"San Antonio, TX",Tarry Towne Apts,https://www.saisd.net/page/article/227,Meals droped of by school bus from 11:30 a.m. to 12:00 p.m.,SA ISD,https://nowcastsa.com/sites/default/files/styles/thumbnail/public/saisd_bus_food_stops.png,"0",OK,"315 Vance Jackson Rd, San Antonio, TX 78201, USA",ChIJN0p0BVFeXIYRwoDgDLoDsOA,ROOFTOP,"29.4764242,-98.5358803"
1400 Gardina,"San Antonio, TX",Spring Wood Apts,https://www.saisd.net/page/article/227,Meals droped of by school bus from 12:10 p.m. to 12:40 p.m.,SA ISD,https://nowcastsa.com/sites/default/files/styles/thumbnail/public/saisd_bus_food_stops.png,"0",OK,"1400 Gardina, San Antonio, TX 78201, USA",ChIJ5-cza1BeXIYRGKK9uJluVIw,ROOFTOP,"29.4782497,-98.5376761"
1318 Gardina,"San Antonio, TX",Gardina Court Apts,https://www.saisd.net/page/article/227,Meals droped of by school bus from 12:50 p.m. to 1:20 p.m.,SA ISD,https://nowcastsa.com/sites/default/files/styles/thumbnail/public/saisd_bus_food_stops.png,"0",OK,"1318 Gardina, San Antonio, TX 78201, USA",ChIJxwDi0FFeXIYRGSqdfUbJhsE,ROOFTOP,"29.479522,-98.535883"
4325 NW Loop 410,"San Antonio, TX",South Point Oaks Apts,https://www.saisd.net/page/article/227,Meals droped of by school bus from 9:45 a.m. to 10:15 a.m.,SA ISD,https://nowcastsa.com/sites/default/files/styles/thumbnail/public/saisd_bus_food_stops.png,"0",OK,"4325 Northwest Loop 410, San Antonio, TX 78229, USA",EjM0MzI1IE5vcnRod2VzdCBMb29wIDQxMCwgU2FuIEFudG9uaW8sIFRYIDc4MjI5LCBVU0EiGxIZChQKEgmpsR3WCl5chhG1kjbXqk9CaBDlIQ,RANGE_INTERPOLATED,"29.4900749,-98.56933219999999"
3253 Hillcrest Dr,"San Antonio, TX",Woods of Brookhollow Apts,https://www.saisd.net/page/article/227,Meals droped of by school bus from 10:25 a.m. to 10:55 a.m.,SA ISD,https://nowcastsa.com/sites/default/files/styles/thumbnail/public/saisd_bus_food_stops.png,"0",OK,"3253 Hillcrest Dr, San Antonio, TX 78201, USA",ChIJkyEWWhNeXIYRY925Oo6nBUQ,ROOFTOP,"29.491022,-98.556023"
3110 Hillcrest Dr # 105,"San Antonio, TX",Dakota apts,https://www.saisd.net/page/article/227,Meals droped of by school bus from 11:05 a.m. to 11:35 a.m.,SA ISD,https://nowcastsa.com/sites/default/files/styles/thumbnail/public/saisd_bus_food_stops.png,"0",OK,"3110 Hillcrest Dr #105, San Antonio, TX 78201, USA",EjIzMTEwIEhpbGxjcmVzdCBEciAjMTA1LCBTYW4gQW50b25pbywgVFggNzgyMDEsIFVTQSIfGh0KFgoUChIJTe16XWteXIYRmZG3_ohQhkkSAzEwNQ,ROOFTOP,"29.4892884,-98.5555619"
2903 Hillcrest Dr,"San Antonio, TX",Trio apts,https://www.saisd.net/page/article/227,Meals droped of by school bus from 11:45 a.m. to 12:15 p.m.,SA ISD,https://nowcastsa.com/sites/default/files/styles/thumbnail/public/saisd_bus_food_stops.png,"0",OK,"2903 Hillcrest Dr, San Antonio, TX 78201, USA",ChIJNTBksm1eXIYRy5feqF4IEnM,ROOFTOP,"29.4860833,-98.5583461"
1150 Babcock Rd,"San Antonio, TX",Spanish keys apts,https://www.saisd.net/page/article/227,Meals droped of by school bus from 12:25 a.m. to 12:55 p.m.,SA ISD,https://nowcastsa.com/sites/default/files/styles/thumbnail/public/saisd_bus_food_stops.png,"0",OK,"1150 Babcock Rd, Balcones Heights, TX 78201, USA",ChIJEbA8hm5eXIYRJub3SgELvnk,ROOFTOP,"29.48400699999999,-98.55819179999999"
801 Gentleman Rd,"San Antonio, TX",Terrace House Apts,https://www.saisd.net/page/article/227,Meals droped of by school bus from 1:00 p.m. to 1:30 p.m.,SA ISD,https://nowcastsa.com/sites/default/files/styles/thumbnail/public/saisd_bus_food_stops.png,"0",OK,"801 Gentleman Rd, Balcones Heights, TX 78201, USA",ChIJlYLOO2teXIYRReaPy6PZbgo,ROOFTOP,"29.4893056,-98.5537114"
6222 S New Braunfels Ave,"San Antonio, TX",Costa Almadena Apts,https://www.saisd.net/page/article/227,Meals droped of by school bus from 9:45 a.m. to 10:15 a.m.,SA ISD,https://nowcastsa.com/sites/default/files/styles/thumbnail/public/saisd_bus_food_stops.png,"0",OK,"6222 S New Braunfels Ave, San Antonio, TX 78223, USA",ChIJc3yLRrn3XIYRrAobTomW9yk,ROOFTOP,"29.3650328,-98.4581414"
538 Hot Wells Blvd,"San Antonio, TX",Robins Nest Apts,https://www.saisd.net/page/article/227,Meals droped of by school bus from 10:25 a.m. to 10:55 a.m.,SA ISD,https://nowcastsa.com/sites/default/files/styles/thumbnail/public/saisd_bus_food_stops.png,"0",OK,"538 Hot Wells Blvd, San Antonio, TX 78223, USA",ChIJoy_Pubn3XIYRvc6pSyq9_bs,ROOFTOP,"29.367952,-98.45898190000001"
501 Koehler Ct,"San Antonio, TX",Hillside Manor Apts,https://www.saisd.net/page/article/227,Meals droped of by school bus from 11:05 a.m. to 11:35 a.m.,SA ISD,https://nowcastsa.com/sites/default/files/styles/thumbnail/public/saisd_bus_food_stops.png,"0",OK,"501 Koehler Ct, San Antonio, TX 78223, USA",ChIJYdOpp7n3XIYRzX-Bm0IDfLg,ROOFTOP,"29.36705559999999,-98.4587058"
515 Riverside Dr,"San Antonio, TX",Riverside Apts,https://www.saisd.net/page/article/227,Meals droped of by school bus from 11:45 a.m. to 12:15 p.m.,SA ISD,https://nowcastsa.com/sites/default/files/styles/thumbnail/public/saisd_bus_food_stops.png,"0",OK,"515 Riverside Dr, San Antonio, TX 78223, USA",ChIJqwlXfdH3XIYRrlphRCaTXIc,ROOFTOP,"29.3743234,-98.47663700000001"
927 VFW Blvd,"San Antonio, TX",Mission Del Rio Apts,https://www.saisd.net/page/article/227,Meals droped of by school bus from 12:25 p.m. to 12:55 p.m.,SA ISD,https://nowcastsa.com/sites/default/files/styles/thumbnail/public/saisd_bus_food_stops.png,"0",OK,"927 VFW Blvd, San Antonio, TX 78223, USA",ChIJs4ppP9D3XIYRbbZIXYBWzlY,ROOFTOP,"29.3703843,-98.474515"
1600 Saltillo St,"San Antonio, TX",Good Samaritan Center,https://www.saisd.net/page/article/227,Meals droped of by school bus from 9:45 a.m. to 10:15 a.m.,SA ISD,https://nowcastsa.com/sites/default/files/styles/thumbnail/public/saisd_bus_food_stops.png,"0",OK,"1600 Saltillo St, San Antonio, TX 78207, USA",ChIJI4fB5C9ZXIYRC06KoWR_LLc,ROOFTOP,"29.411504,-98.5388866"
1938 S Zarzamora St,"San Antonio, TX",San Juan Square Apts,https://www.saisd.net/page/article/227,Meals droped of by school bus from 10:25 a.m. to 10:55 a.m.,SA ISD,https://nowcastsa.com/sites/default/files/styles/thumbnail/public/saisd_bus_food_stops.png,"0",OK,"1938 S Zarzamora St, San Antonio, TX 78207, USA",ChIJgUkFSidZXIYRGNQJ0Ktatf4,ROOFTOP,"29.4058461,-98.52957699999999"
2003 S Zarzamora St,"San Antonio, TX",Gardens at San Juan Square Apts,https://www.saisd.net/page/article/227,Meals droped of by school bus from 11:05 a.m. to 11:35 a.m.,SA ISD,https://nowcastsa.com/sites/default/files/styles/thumbnail/public/saisd_bus_food_stops.png,"0",OK,"2003 S Zarzamora St, San Antonio, TX 78207, USA",ChIJXQ2HzCBZXIYRc-AwMXZZEyQ,ROOFTOP,"29.4053578,-98.53025269999999"
2404 S Calaveras St,"San Antonio, TX",San Juan Square 2 Apts,https://www.saisd.net/page/article/227,Meals droped of by school bus from 11:45 a.m. to 12:15 p.m.,SA ISD,https://nowcastsa.com/sites/default/files/styles/thumbnail/public/saisd_bus_food_stops.png,"0",OK,"2404 S Calaveras St, San Antonio, TX 78207, USA",ChIJRyTIhd9YXIYRH_Bh2yC6yBI,ROOFTOP,"29.40219129999999,-98.52773409999999"
1901 S San Marcos,"San Antonio, TX",Artisan at Creekside Apts,https://www.saisd.net/page/article/227,Meals droped of by school bus from 12:25 p.m. to 12:55 p.m.,SA ISD,https://nowcastsa.com/sites/default/files/styles/thumbnail/public/saisd_bus_food_stops.png,"0",OK,"1901 S San Marcos, San Antonio, TX 78207, USA",ChIJpaI978NYXIYR3O2XosKD-WU,ROOFTOP,"29.40563,-98.512669"
4618 Dietrich Rd,"San Antonio, TX",Dietrich Rd Apts,https://www.saisd.net/page/article/227,Meals droped of by school bus from 9:45 a.m. to 10:15 a.m.,SA ISD,https://nowcastsa.com/sites/default/files/styles/thumbnail/public/saisd_bus_food_stops.png,"0",OK,"4618 Dietrich Rd, San Antonio, TX 78219, USA",ChIJA1iJFAb0XIYRRH-NWMMAg3c,ROOFTOP,"29.44124729999999,-98.40088329999999"
4141 I-10 Frontage Rd,"San Antonio, TX",Casa Pointe Apts,https://www.saisd.net/page/article/227,Meals droped of by school bus from 10:25 a.m. to 10:55 a.m.,SA ISD,https://nowcastsa.com/sites/default/files/styles/thumbnail/public/saisd_bus_food_stops.png,"0",OK,"4141 I-10 Frontage Rd, Converse, TX 78109, USA",Ei40MTQxIEktMTAgRnJvbnRhZ2UgUmQsIENvbnZlcnNlLCBUWCA3ODEwOSwgVVNBIhsSGQoUChIJGW8A6zDyXIYRTSlDUcmga7EQrSA,RANGE_INTERPOLATED,"29.4509473,-98.3411692"
4201 Leo Ln,"San Antonio, TX",The Palms/Edge Apts,https://www.saisd.net/page/article/227,Meals droped of by school bus from 11:05 a.m. to 11:35 a.m.,SA ISD,https://nowcastsa.com/sites/default/files/styles/thumbnail/public/saisd_bus_food_stops.png,"0",OK,"Leo Ln, Riviera Beach, FL, USA",ChIJ-Z4Ropwq2YgRA4A5lQZpeEM,GEOMETRIC_CENTER,"26.7924808,-80.1032333"
1010 Locke St,"San Antonio, TX",Park At Sutton Oaks Apts,https://www.saisd.net/page/article/227,Meals droped of by school bus from 11:45 a.m. to 12:15 p.m.,SA ISD,https://nowcastsa.com/sites/default/files/styles/thumbnail/public/saisd_bus_food_stops.png,"0",OK,"1010 Locke St, San Antonio, TX 78208, USA",ChIJB9LyDtH1XIYRcCsJfXwrlBQ,ROOFTOP,"29.4361834,-98.4476213"
2818 N IH-35,"San Antonio, TX",Sutton Oaks Apts,https://www.saisd.net/page/article/227,Meals droped of by school bus from 12:25 p.m. to 12:55 p.m.,SA ISD,https://nowcastsa.com/sites/default/files/styles/thumbnail/public/saisd_bus_food_stops.png,"0",OK,"2818 I-35, San Antonio, TX 78208, USA",ChIJc5BbOdL1XIYRoBHwH7f2teI,ROOFTOP,"29.4378829,-98.4447843"
1111 S. Navidad St.,"San Antonio, TX",Barkley-Ruiz Elementary School,https://www.saisd.net/page/article/227,curbside pickup of breakfast and lunch from 10:30 a.m. to 12:30 p.m.,SA ISD,https://nowcastsa.com/sites/default/files/styles/thumbnail/public/sanantonioisd.jpg,"0",OK,"1111 S Navidad St, San Antonio, TX 78207, USA",ChIJCS0Nk9ZYXIYRHvAOHJmgC8U,ROOFTOP,"29.4160826,-98.5243435"
1411 W. Ashby Place,"San Antonio, TX",Beacon Hill Elementary School,https://www.saisd.net/page/article/227,curbside pickup of breakfast and lunch from 10:30 a.m. to 12:30 p.m.,SA ISD,https://nowcastsa.com/sites/default/files/styles/thumbnail/public/sanantonioisd.jpg,"0",OK,"1411 W Ashby Pl, San Antonio, TX 78201, USA",ChIJz-xI8BZfXIYRRa8QFJ8kXko,ROOFTOP,"29.4499657,-98.514521"
510 Morningview Drive,"San Antonio, TX",Gates Elementary,https://www.saisd.net/page/article/227,curbside pickup of breakfast and lunch from 10:30 a.m. to 12:30 p.m.,SA ISD,https://nowcastsa.com/sites/default/files/styles/thumbnail/public/sanantonioisd.jpg,"0",OK,"510 Morningview Dr, San Antonio, TX 78220, USA",ChIJdyGkXZL2XIYRXJJQNLqJ7dg,ROOFTOP,"29.4099234,-98.4278566"
325 Pruitt Ave.,"San Antonio, TX",Harris Middle School,https://www.saisd.net/page/article/227,curbside pickup of breakfast and lunch from 10:30 a.m. to 12:30 p.m.,SA ISD,https://nowcastsa.com/sites/default/files/styles/thumbnail/public/sanantonioisd.jpg,"0",OK,"325 Pruitt Ave, San Antonio, TX 78204, USA",ChIJyaAvyepYXIYR5ibzdlWXF9Y,ROOFTOP,"29.3994749,-98.5074873"
1130 E. Sunshine Drive,"San Antonio, TX",Longfellow Middle School,https://www.saisd.net/page/article/227,curbside pickup of breakfast and lunch from 10:30 a.m. to 12:30 p.m.,SA ISD,https://nowcastsa.com/sites/default/files/styles/thumbnail/public/sanantonioisd.jpg,"0",OK,"1130 E Sunshine Dr, San Antonio, TX 78228, USA",ChIJiRzeZHteXIYRz8yt310C-Ps,ROOFTOP,"29.4732844,-98.56326"
3000 Tampico St,"San Antonio, TX",Rhodes Middle School,https://www.saisd.net/page/article/227,curbside pickup of breakfast and lunch from 10:30 a.m. to 12:30 p.m.,SA ISD,https://nowcastsa.com/sites/default/files/styles/thumbnail/public/sanantonioisd.jpg,"0",OK,"3000 Tampico St, San Antonio, TX 78207, USA",ChIJ_zZxkDFZXIYRCDs33gB9o04,ROOFTOP,"29.4164376,-98.5414091"
202 School St.,"San Antonio, TX",Riverside Park Elementary School,https://www.saisd.net/page/article/227,curbside pickup of breakfast and lunch from 10:30 a.m. to 12:30 p.m.,SA ISD,https://nowcastsa.com/sites/default/files/styles/thumbnail/public/sanantonioisd.jpg,"0",OK,"202 School St, San Antonio, TX 78210, USA",ChIJp6Drsin2XIYRHrgPrSPNNak,ROOFTOP,"29.388482,-98.4822744"
2101 Edison Drive,"San Antonio, TX",Whittier Middle School,https://www.saisd.net/page/article/227,curbside pickup of breakfast and lunch from 10:30 a.m. to 12:30 p.m.,SA ISD,https://nowcastsa.com/sites/default/files/styles/thumbnail/public/sanantonioisd.jpg,"0",OK,"2101 Edison Dr, San Antonio, TX 78201, USA",ChIJF6ZNelNeXIYR05k2PaZ0ilE,ROOFTOP,"29.4754169,-98.53013469999999"
515 Willow St.,"San Antonio, TX",Bowden Academy,https://www.saisd.net/page/article/227,curbside pickup of breakfast and lunch from 10:30 a.m. to 12:30 p.m.,SA ISD,https://nowcastsa.com/sites/default/files/styles/thumbnail/public/sanantonioisd.jpg,"0",OK,"515 Willow St, San Antonio, TX 78202, USA",ChIJ9WoHheP1XIYR5Y3yiKU9E8s,ROOFTOP,"29.4319369,-98.46992829999999"
1214 Guadalupe St.,"San Antonio, TX",JT Brackenridge Elementary,https://www.saisd.net/page/article/227,curbside pickup of breakfast and lunch from 10:30 a.m. to 12:30 p.m.,SA ISD,https://nowcastsa.com/sites/default/files/styles/thumbnail/public/sanantonioisd.jpg,"0",OK,"1214 Guadalupe St, San Antonio, TX 78207, USA",ChIJ1Q5CKsxYXIYRH9HcROV2Yzs,ROOFTOP,"29.418139,-98.5142247"
318 Martin L. King Drive,"San Antonio, TX",Douglass Academy,https://www.saisd.net/page/article/227,curbside pickup of breakfast and lunch from 10:30 a.m. to 12:30 p.m.,SA ISD,https://nowcastsa.com/sites/default/files/styles/thumbnail/public/sanantonioisd.jpg,"0",OK,"318 Martin Luther King Dr, San Antonio, TX 78203, USA",ChIJXXbMkBr2XIYR_04rParhWjk,ROOFTOP,"29.4130003,-98.4740006"
530 Hoover Ave,"San Antonio, TX",Graebner Elementary,https://www.saisd.net/page/article/227,curbside pickup of breakfast and lunch from 10:30 a.m. to 12:30 p.m.,SA ISD,https://nowcastsa.com/sites/default/files/styles/thumbnail/public/sanantonioisd.jpg,"0",OK,"530 Hoover Ave, San Antonio, TX 78225, USA",ChIJdaDOif1YXIYRZT6R3oWcsX0,ROOFTOP,"29.3848504,-98.52875429999999"
4826 Sea Breeze Drive,"San Antonio, TX",Hirsch Elementary,https://www.saisd.net/page/article/227,curbside pickup of breakfast and lunch from 10:30 a.m. to 12:30 p.m.,SA ISD,https://nowcastsa.com/sites/default/files/styles/thumbnail/public/sanantonioisd.jpg,"0",OK,"4826 Seabreeze Dr, San Antonio, TX 78220, USA",ChIJPZTqjMz2XIYRXcpgXZd-dcw,ROOFTOP,"29.400986,-98.3988"
314 Astor St,"San Antonio, TX",Japhet Academy,https://www.saisd.net/page/article/227,curbside pickup of breakfast and lunch from 10:30 a.m. to 12:30 p.m.,SA ISD,https://nowcastsa.com/sites/default/files/styles/thumbnail/public/sanantonioisd.jpg,"0",OK,"314 Astor St, San Antonio, TX 78210, USA",ChIJ7YCUUzH2XIYRly6OJ7W8BCc,ROOFTOP,"29.3869967,-98.46785179999999"
107 Raleigh Pl,"San Antonio, TX",Maverick Elementary,https://www.saisd.net/page/article/227,curbside pickup of breakfast and lunch from 10:30 a.m. to 12:30 p.m.,SA ISD,https://nowcastsa.com/sites/default/files/styles/thumbnail/public/sanantonioisd.jpg,"0",OK,"107 Raleigh Pl, San Antonio, TX 78201, USA",ChIJm3b3H11eXIYRlA13EH1U-6o,ROOFTOP,"29.4784259,-98.5469959"
9210 S. Presa St,"San Antonio, TX",Mission Academy,https://www.saisd.net/page/article/227,curbside pickup of breakfast and lunch from 10:30 a.m. to 12:30 p.m.,SA ISD,https://nowcastsa.com/sites/default/files/styles/thumbnail/public/sanantonioisd.jpg,"0",OK,"9210 S Presa St, San Antonio, TX 78223, USA",ChIJR2RrUtP5XIYRYsR1iVN2MkY,ROOFTOP,"29.3301199,-98.4399289"
3501 Martin L. King Drive,"San Antonio, TX",M.L. King Academy,https://www.saisd.net/page/article/227,curbside pickup of breakfast and lunch from 10:30 a.m. to 12:30 p.m.,SA ISD,https://nowcastsa.com/sites/default/files/styles/thumbnail/public/sanantonioisd.jpg,"0",OK,"3501 Martin Luther King Dr, San Antonio, TX 78220, USA",ChIJ467TWZb2XIYRZpe42wBI3dQ,ROOFTOP,"29.41442929999999,-98.4210585"
101 Kate Schenck Ave,"San Antonio, TX",Schenck Elementary,https://www.saisd.net/page/article/227,curbside pickup of breakfast and lunch from 10:30 a.m. to 12:30 p.m.,SA ISD,https://nowcastsa.com/sites/default/files/styles/thumbnail/public/sanantonioisd.jpg,"0",OK,"101 Kate Schenck Ave, San Antonio, TX 78223, USA",ChIJtR6MDQv3XIYRcUeOz4wCfVw,ROOFTOP,"29.361797,-98.436481"
401 Berkshire,"San Antonio, TX",Young Women’s Leadership Academy,https://www.saisd.net/page/article/227,curbside pickup of breakfast and lunch from 10:30 a.m. to 12:30 p.m.,SA ISD,https://nowcastsa.com/sites/default/files/styles/thumbnail/public/sanantonioisd.jpg,"0",OK,"401 Berkshire Ave, San Antonio, TX 78210, USA",ChIJzQrmuiP2XIYR0pQe2K5lMWQ,ROOFTOP,"29.399403,-98.47680799999999"
400 Eagleland Drive,"San Antonio, TX",Brackenridge High School,https://www.saisd.net/page/article/227,curbside pickup of breakfast and lunch from 10:30 a.m. to 12:30 p.m.,SA ISD,https://nowcastsa.com/sites/default/files/styles/thumbnail/public/sanantonioisd.jpg,"0",OK,"400 Eagleland Dr, San Antonio, TX 78210, USA",ChIJfVyXr6FYXIYRwVh12yZCFSU,ROOFTOP,"29.404749,-98.487608"
1002 Edwards St.,"San Antonio, TX",Burbank High School,https://www.saisd.net/page/article/227,curbside pickup of breakfast and lunch from 10:30 a.m. to 12:30 p.m.,SA ISD,https://nowcastsa.com/sites/default/files/styles/thumbnail/public/sanantonioisd.jpg,"0",OK,"1002 Edwards, San Antonio, TX 78204, USA",ChIJHR4qq-1YXIYRyxt3Z7HGPmg,ROOFTOP,"29.3928838,-98.5092028"
701 Santa Monica Drive,"San Antonio, TX",Edison High School,https://www.saisd.net/page/article/227,curbside pickup of breakfast and lunch from 10:30 a.m. to 12:30 p.m.,SA ISD,https://nowcastsa.com/sites/default/files/styles/thumbnail/public/sanantonioisd.jpg,"0",OK,"701 Santa Monica, San Antonio, TX 78212, USA",ChIJx5tni59fXIYRiBUxYzYkfhc,ROOFTOP,"29.4720809,-98.5049999"
637 N. Main Avenue,"San Antonio, TX",Fox Tech High School,https://www.saisd.net/page/article/227,curbside pickup of breakfast and lunch from 10:30 a.m. to 12:30 p.m.,SA ISD,https://nowcastsa.com/sites/default/files/styles/thumbnail/public/sanantonioisd.jpg,"0",OK,"637 N Main Ave, San Antonio, TX 78205, USA",ChIJR8Hu3FFfXIYRwOYf1yfOUSk,ROOFTOP,"29.4324989,-98.4949656"
3118 Elgin Ave,"San Antonio, TX",Highlands High School,https://www.saisd.net/page/article/227,curbside pickup of breakfast and lunch from 10:30 a.m. to 12:30 p.m.,SA ISD,https://nowcastsa.com/sites/default/files/styles/thumbnail/public/sanantonioisd.jpg,"0",OK,"3118 Elgin Ave, San Antonio, TX 78210, USA",ChIJSyZHWVb2XIYRKTVVBKPwjPA,ROOFTOP,"29.3882158,-98.44258549999999"
723 Donaldson Ave.,"San Antonio, TX",Jefferson High School,https://www.saisd.net/page/article/227,curbside pickup of breakfast and lunch from 10:30 a.m. to 12:30 p.m.,SA ISD,https://nowcastsa.com/sites/default/files/styles/thumbnail/public/sanantonioisd.jpg,"0",OK,"723 Donaldson Ave, San Antonio, TX 78201, USA",ChIJFWkvb_deXIYRrixHQ9gBmOw,ROOFTOP,"29.4651956,-98.53961699999999"
1514 W. Cesar E. Chavez Blvd.,"San Antonio, TX",Lanier High School,https://www.saisd.net/page/article/227,curbside pickup of breakfast and lunch from 10:30 a.m. to 12:30 p.m.,SA ISD,https://nowcastsa.com/sites/default/files/styles/thumbnail/public/sanantonioisd.jpg,"0",OK,"1514 W César E Chávez Blvd, San Antonio, TX 78207, USA",ChIJh27pbs1YXIYRheM08NY0ipA,ROOFTOP,"29.42182,-98.5158917"
4635 E. Houston St.,"San Antonio, TX",Sam Houston High School,https://www.saisd.net/page/article/227,curbside pickup of breakfast and lunch from 10:30 a.m. to 12:30 p.m.,SA ISD,https://nowcastsa.com/sites/default/files/styles/thumbnail/public/sanantonioisd.jpg,"0",OK,"4635 E Houston St, San Antonio, TX 78220, USA",ChIJK3n8f6v2XIYRIehoet9BcHo,ROOFTOP,"29.4253751,-98.3992038"
1731 Dahlgreen,"San Antonio, TX",Gardendale Elementary,https://www.eisd.net/…/F…/Health%20Update/Closure%20FAQs.pdf,drive-up Grab and Go meal at all Edgewood ISD campuses.  (Breakfast from 7:30 am – 9:30 am)  (Lunch from 11:30 am – 1:30 pm),Edgewood ISD,https://nowcastsa.com/sites/default/files/styles/thumbnail/public/edgewoodisd.png,"0",OK,"1731 Dahlgreen Ave, San Antonio, TX 78237, USA",ChIJoYC7LFFZXIYR0sz-WcD68k4,ROOFTOP,"29.4121029,-98.56665059999999"
2803 Castroville,"San Antonio, TX",Henry B. Gonzalez Elementary,https://www.eisd.net/…/F…/Health%20Update/Closure%20FAQs.pdf,drive-up Grab and Go meal at all Edgewood ISD campuses.  (Breakfast from 7:30 am – 9:30 am)  (Lunch from 11:30 am – 1:30 pm),Edgewood ISD,https://nowcastsa.com/sites/default/files/styles/thumbnail/public/edgewoodisd.png,"0",OK,"2803 Castroville Rd, San Antonio, TX 78237, USA",ChIJc90iZPBbXIYRcS7iGjOL3y4,ROOFTOP,"29.4102164,-98.5840351"
115 Las Palmas,"San Antonio, TX",Las Palmas Elementary,https://www.eisd.net/…/F…/Health%20Update/Closure%20FAQs.pdf,drive-up Grab and Go meal at all Edgewood ISD campuses.  (Breakfast from 7:30 am – 9:30 am)  (Lunch from 11:30 am – 1:30 pm),Edgewood ISD,https://nowcastsa.com/sites/default/files/styles/thumbnail/public/edgewoodisd.png,"0",OK,"115 Las Palmas Dr, San Antonio, TX 78237, USA",ChIJmy_12jRZXIYRxeAgHSW7XnU,ROOFTOP,"29.4210438,-98.5472963"
400 Aurora Drive,"San Antonio, TX",Loma Park Elementary,https://www.eisd.net/…/F…/Health%20Update/Closure%20FAQs.pdf,drive-up Grab and Go meal at all Edgewood ISD campuses.  (Breakfast from 7:30 am – 9:30 am)  (Lunch from 11:30 am – 1:30 pm),Edgewood ISD,https://nowcastsa.com/sites/default/files/styles/thumbnail/public/edgewoodisd.png,"0",OK,"400 Aurora, San Antonio, TX 78228, USA",ChIJ8_OviB9cXIYRiRFujvLFMGY,ROOFTOP,"29.4426891,-98.5741405"
6515 W Commerce,"San Antonio, TX",Lyndon B. Johnson Elementary,https://www.eisd.net/…/F…/Health%20Update/Closure%20FAQs.pdf,drive-up Grab and Go meal at all Edgewood ISD campuses.  (Breakfast from 7:30 am – 9:30 am)  (Lunch from 11:30 am – 1:30 pm),Edgewood ISD,https://nowcastsa.com/sites/default/files/styles/thumbnail/public/edgewoodisd.png,"0",OK,"6515 W Commerce St, San Antonio, TX 78227, USA",ChIJX_41iRNcXIYRzGiWvQIeZko,ROOFTOP,"29.435715,-98.5903723"
1507 Ceralvo,"San Antonio, TX",Perales Elementary,https://www.eisd.net/…/F…/Health%20Update/Closure%20FAQs.pdf,drive-up Grab and Go meal at all Edgewood ISD campuses.  (Breakfast from 7:30 am – 9:30 am)  (Lunch from 11:30 am – 1:30 pm),Edgewood ISD,https://nowcastsa.com/sites/default/files/styles/thumbnail/public/edgewoodisd.png,"0",OK,"1507 Ceralvo St, San Antonio, TX 78237, USA",ChIJZwOrPzhZXIYRnaL2Il67n9g,ROOFTOP,"29.4091285,-98.5485406"
3823 Fortuna,"San Antonio, TX",Roosevelt Elementary,https://www.eisd.net/…/F…/Health%20Update/Closure%20FAQs.pdf,drive-up Grab and Go meal at all Edgewood ISD campuses.  (Breakfast from 7:30 am – 9:30 am)  (Lunch from 11:30 am – 1:30 pm),Edgewood ISD,https://nowcastsa.com/sites/default/files/styles/thumbnail/public/edgewoodisd.png,"0",OK,"3823 Fortuna, San Antonio, TX 78237, USA",ChIJWxAfk6ReXIYRqVNlxVDHULo,ROOFTOP,"29.4369788,-98.56257339999999"
3011 Ruiz St,"San Antonio, TX",Roy Cisneros Elementary,https://www.eisd.net/…/F…/Health%20Update/Closure%20FAQs.pdf,drive-up Grab and Go meal at all Edgewood ISD campuses.  (Breakfast from 7:30 am – 9:30 am)  (Lunch from 11:30 am – 1:30 pm),Edgewood ISD,https://nowcastsa.com/sites/default/files/styles/thumbnail/public/edgewoodisd.png,"0",OK,"3011 Ruiz St, San Antonio, TX 78228, USA",ChIJ8YBOqcBeXIYR88uh6QqsjUM,ROOFTOP,"29.4390677,-98.54969919999999"
415 SW 36th Street,"San Antonio, TX",Stafford Elementary,https://www.eisd.net/…/F…/Health%20Update/Closure%20FAQs.pdf,drive-up Grab and Go meal at all Edgewood ISD campuses.  (Breakfast from 7:30 am – 9:30 am)  (Lunch from 11:30 am – 1:30 pm),Edgewood ISD,https://nowcastsa.com/sites/default/files/styles/thumbnail/public/edgewoodisd.png,"0",OK,"415 SW 36th St, San Antonio, TX 78237, USA",ChIJYzqY8gFcXIYR7fP4cbQddgU,ROOFTOP,"29.4251339,-98.57321759999999"
2525 SW Gen McMullen,"San Antonio, TX",Winston Elementary,https://www.eisd.net/…/F…/Health%20Update/Closure%20FAQs.pdf,drive-up Grab and Go meal at all Edgewood ISD campuses.  (Breakfast from 7:30 am – 9:30 am)  (Lunch from 11:30 am – 1:30 pm),Edgewood ISD,https://nowcastsa.com/sites/default/files/styles/thumbnail/public/edgewoodisd.png,"0",OK,"2525 S General McMullen Dr, San Antonio, TX 78226, USA",ChIJfX7ElWVZXIYRF9K8SLJnyxU,ROOFTOP,"29.390158,-98.56237899999999"
3300 Ruiz Street,"San Antonio, TX",Cardenas ECC,https://www.eisd.net/…/F…/Health%20Update/Closure%20FAQs.pdf,drive-up Grab and Go meal at all Edgewood ISD campuses.  (Breakfast from 7:30 am – 9:30 am)  (Lunch from 11:30 am – 1:30 pm),Edgewood ISD,https://nowcastsa.com/sites/default/files/styles/thumbnail/public/edgewoodisd.png,"0",OK,"3300 Ruiz St, San Antonio, TX 78237, USA",ChIJb-COsb5eXIYRIGAeutt7wTU,ROOFTOP,"29.438975,-98.554634"
611 SW 36th Street,"San Antonio, TX",Stafford ECC,https://www.eisd.net/…/F…/Health%20Update/Closure%20FAQs.pdf,drive-up Grab and Go meal at all Edgewood ISD campuses.  (Breakfast from 7:30 am – 9:30 am)  (Lunch from 11:30 am – 1:30 pm),Edgewood ISD,https://nowcastsa.com/sites/default/files/styles/thumbnail/public/edgewoodisd.png,"0",OK,"611 SW 36th St, San Antonio, TX 78237, USA",ChIJLTb-UABcXIYRF5MmNmvmEqo,ROOFTOP,"29.4219343,-98.57399029999999"
1626 W Thompson PL,"San Antonio, TX",Brentwood Middle School,https://www.eisd.net/…/F…/Health%20Update/Closure%20FAQs.pdf,drive-up Grab and Go meal at all Edgewood ISD campuses.  (Breakfast from 7:30 am – 9:30 am)  (Lunch from 11:30 am – 1:30 pm),Edgewood ISD,https://nowcastsa.com/sites/default/files/styles/thumbnail/public/edgewoodisd.png,"0",OK,"1626 W Thompson Pl, San Antonio, TX 78226, USA",ChIJLQ-LfWlZXIYRuiNZnmdBGAo,ROOFTOP,"29.3958859,-98.5538476"
3306 Ruiz,"San Antonio, TX",Gus Garcia Middle School,https://www.eisd.net/…/F…/Health%20Update/Closure%20FAQs.pdf,drive-up Grab and Go meal at all Edgewood ISD campuses.  (Breakfast from 7:30 am – 9:30 am)  (Lunch from 11:30 am – 1:30 pm),Edgewood ISD,https://nowcastsa.com/sites/default/files/styles/thumbnail/public/edgewoodisd.png,"0",OK,"3306 Ruiz St, San Antonio, TX 78237, USA",ChIJw5-BBLxeXIYR07wKX2gg2lE,ROOFTOP,"29.4391546,-98.5567368"
627 S Acme Rd,"San Antonio, TX",Wrenn Middle School,https://www.eisd.net/…/F…/Health%20Update/Closure%20FAQs.pdf,drive-up Grab and Go meal at all Edgewood ISD campuses.  (Breakfast from 7:30 am – 9:30 am)  (Lunch from 11:30 am – 1:30 pm),Edgewood ISD,https://nowcastsa.com/sites/default/files/styles/thumbnail/public/edgewoodisd.png,"0",OK,"627 S Acme Rd, San Antonio, TX 78237, USA",ChIJG2PIYwlcXIYRW0kGjSk13k0,ROOFTOP,"29.4230784,-98.5883282"
607 SW 34th St,"San Antonio, TX",Edgewood Fine Arts Academy,https://www.eisd.net/…/F…/Health%20Update/Closure%20FAQs.pdf,drive-up Grab and Go meal at all Edgewood ISD campuses.  (Breakfast from 7:30 am – 9:30 am)  (Lunch from 11:30 am – 1:30 pm),Edgewood ISD,https://nowcastsa.com/sites/default/files/styles/thumbnail/public/edgewoodisd.png,"0",OK,"607 SW 34th St, San Antonio, TX 78237, USA",ChIJWeDQ4KpeXIYRwQDpo5pCYCs,ROOFTOP,"29.4217888,-98.56926879999999"
607 SW 34th St,"San Antonio, TX",Emma Frey Alternative School,https://www.eisd.net/…/F…/Health%20Update/Closure%20FAQs.pdf,drive-up Grab and Go meal at all Edgewood ISD campuses.  (Breakfast from 7:30 am – 9:30 am)  (Lunch from 11:30 am – 1:30 pm),Edgewood ISD,https://nowcastsa.com/sites/default/files/styles/thumbnail/public/edgewoodisd.png,"0",OK,"607 SW 34th St, San Antonio, TX 78237, USA",ChIJWeDQ4KpeXIYRwQDpo5pCYCs,ROOFTOP,"29.4217888,-98.56926879999999"
1922 S Gen McMullen,"San Antonio, TX",John F. Kennedy High School,https://www.eisd.net/…/F…/Health%20Update/Closure%20FAQs.pdf,drive-up Grab and Go meal at all Edgewood ISD campuses.  (Breakfast from 7:30 am – 9:30 am)  (Lunch from 11:30 am – 1:30 pm),Edgewood ISD,https://nowcastsa.com/sites/default/files/styles/thumbnail/public/edgewoodisd.png,"0",OK,"1922 S General McMullen Dr, San Antonio, TX 78226, USA",ChIJYVOWC2lZXIYR--9YhB9iIZE,ROOFTOP,"29.395525,-98.557227"
1227 Memorial St,"San Antonio, TX",Memorial High School,https://www.eisd.net/…/F…/Health%20Update/Closure%20FAQs.pdf,drive-up Grab and Go meal at all Edgewood ISD campuses.  (Breakfast from 7:30 am – 9:30 am)  (Lunch from 11:30 am – 1:30 pm),Edgewood ISD,https://nowcastsa.com/sites/default/files/styles/thumbnail/public/edgewoodisd.png,"0",OK,"1227 Memorial St, San Antonio, TX 78228, USA",ChIJ9YoCA5leXIYRftbfiLEAuOU,ROOFTOP,"29.4466919,-98.56439739999999"
422 W HUTCHINS PL,"San Antonio, TX",Terrell Wells Middle School,https://www.facebook.com/…/a.54852505520…/3088466911206232/…,curbside pickup of breakfast 7 a.m. to 8:30 a.m. and lunch from 11:00 a.m. to 12:30 p.m.,Harlandale ISD,https://nowcastsa.com/sites/default/files/styles/thumbnail/public/harlandaleisd.jpg,"0",OK,"422 W Hutchins Pl, San Antonio, TX 78221, USA",ChIJpZLd3jxYXIYRc2Y-G8X0hl8,ROOFTOP,"29.344625,-98.50914399999999"
743 W Southcross Blvd,"San Antonio, TX",Leal Middle School,https://www.facebook.com/…/a.54852505520…/3088466911206232/…,curbside pickup of breakfast 7 a.m. to 8:30 a.m. and lunch from 11:00 a.m. to 12:30 p.m.,Harlandale ISD,https://nowcastsa.com/sites/default/files/styles/thumbnail/public/harlandaleisd.jpg,"0",OK,"743 W Southcross Blvd, San Antonio, TX 78211, USA",ChIJd726bVFYXIYR63W6eqinifw,ROOFTOP,"29.3690569,-98.5213837"
300 W Huff Ave,"San Antonio, TX",Harlandale Middle School,https://www.facebook.com/…/a.54852505520…/3088466911206232/…,curbside pickup of breakfast 7 a.m. to 8:30 a.m. and lunch from 11:00 a.m. to 12:30 p.m.,Harlandale ISD,https://nowcastsa.com/sites/default/files/styles/thumbnail/public/harlandaleisd.jpg,"0",OK,"300 W Huff Ave, San Antonio, TX 78214, USA",ChIJZ-zp5G5YXIYRIdLj-y-P9rE,ROOFTOP,"29.3638155,-98.4987436"
422 E Ashley Rd,"San Antonio, TX",Kingsborough Middle School,https://www.facebook.com/…/a.54852505520…/3088466911206232/…,curbside pickup of breakfast 7 a.m. to 8:30 a.m. and lunch from 11:00 a.m. to 12:30 p.m.,Harlandale ISD,https://nowcastsa.com/sites/default/files/styles/thumbnail/public/harlandaleisd.jpg,"0",OK,"422 E Ashley Rd, San Antonio, TX 78221, USA",ChIJx-b8Vh1YXIYRzO5xFeTOhgM,ROOFTOP,"29.3332091,-98.49616619999999"
11843 Vance Jackson,"San Antonio, TX",Hobby MS,https://www.nisd.net/…/nisd-offer-food-kits-and-online-inst…,Each car or vehicle will be able to pick up one food and supply kit. 8 - 10 a.m. and 4 - 6 p.m.,Northside ISD,https://nowcastsa.com/sites/default/files/styles/thumbnail/public/northsideisd_0.jpg,"0",OK,"11843 Vance Jackson Rd, San Antonio, TX 78230, USA",ChIJDQrVMdNgXIYRknaXW02SUFE,ROOFTOP,"29.5501555,-98.57064229999999"
1256 Pinn Rd,"San Antonio, TX",Jones MS,https://www.nisd.net/…/nisd-offer-food-kits-and-online-inst…,Each car or vehicle will be able to pick up one food and supply kit. 8 - 10 a.m. and 4 - 6 p.m.,Northside ISD,https://nowcastsa.com/sites/default/files/styles/thumbnail/public/northsideisd_0.jpg,"0",OK,"1256 Pinn Rd, San Antonio, TX 78227, USA",ChIJpdnyVoFcXIYRAmhuzSbKdyM,ROOFTOP,"29.4226864,-98.6219299"
200 Grosenbacher N,"San Antonio, TX",Luna MS,https://www.nisd.net/…/nisd-offer-food-kits-and-online-inst…,Each car or vehicle will be able to pick up one food and supply kit. 8 - 10 a.m. and 4 - 6 p.m.,Northside ISD,https://nowcastsa.com/sites/default/files/styles/thumbnail/public/northsideisd_0.jpg,"0",OK,"200 N Grosenbacher Rd, San Antonio, TX 78253, USA",ChIJjQE_S91DXIYRGE7jZKoxtu0,ROOFTOP,"29.4340669,-98.73719"
5227 Evers Rd,"San Antonio, TX",Neff MS,https://www.nisd.net/…/nisd-offer-food-kits-and-online-inst…,Each car or vehicle will be able to pick up one food and supply kit. 8 - 10 a.m. and 4 - 6 p.m.,Northside ISD,https://nowcastsa.com/sites/default/files/styles/thumbnail/public/northsideisd_0.jpg,"0",OK,"5227 Evers Rd, San Antonio, TX 78238, USA",ChIJHR6-E8FdXIYRJ-bWVYcS_bU,ROOFTOP,"29.4835162,-98.5900322"
201 Hunt Lane,"San Antonio, TX",Pease MS,https://www.nisd.net/…/nisd-offer-food-kits-and-online-inst…,Each car or vehicle will be able to pick up one food and supply kit. 8 - 10 a.m. and 4 - 6 p.m.,Northside ISD,https://nowcastsa.com/sites/default/files/styles/thumbnail/public/northsideisd_0.jpg,"0",OK,"201 Hunt Ln, San Antonio, TX 78245, USA",ChIJdelaYUhDXIYRZY7mfWap3pc,ROOFTOP,"29.434189,-98.6699919"
1400 Cedarhurst,"San Antonio, TX",Rayburn MS,https://www.nisd.net/…/nisd-offer-food-kits-and-online-inst…,Each car or vehicle will be able to pick up one food and supply kit. 8 - 10 a.m. and 4 - 6 p.m.,Northside ISD,https://nowcastsa.com/sites/default/files/styles/thumbnail/public/northsideisd_0.jpg,"0",OK,"1400 Cedarhurst Dr, San Antonio, TX 78227, USA",ChIJm4a8Ej1bXIYRtO69kAFn6F8,ROOFTOP,"29.3820974,-98.6382151"
3630 Callaghan,"San Antonio, TX",Ross MS,https://www.nisd.net/…/nisd-offer-food-kits-and-online-inst…,Each car or vehicle will be able to pick up one food and supply kit. 8 - 10 a.m. and 4 - 6 p.m.,Northside ISD,https://nowcastsa.com/sites/default/files/styles/thumbnail/public/northsideisd_0.jpg,"0",OK,"3630 Callaghan Rd, San Antonio, TX 78228, USA",ChIJTQEWvk5cXIYRhUOiVnji-AY,ROOFTOP,"29.4572706,-98.6008658"
6558 Horn Blvd,"San Antonio, TX",Rudder MS,https://www.nisd.net/…/nisd-offer-food-kits-and-online-inst…,Each car or vehicle will be able to pick up one food and supply kit. 8 - 10 a.m. and 4 - 6 p.m.,Northside ISD,https://nowcastsa.com/sites/default/files/styles/thumbnail/public/northsideisd_0.jpg,"0",OK,"6558 Horn Blvd, San Antonio, TX 78240, USA",ChIJR8bRXadnXIYRZLNLEapOW7c,ROOFTOP,"29.53927029999999,-98.6164969"
13200 Skyhawk,"San Antonio, TX",Stinson MS,https://www.nisd.net/…/nisd-offer-food-kits-and-online-inst…,Each car or vehicle will be able to pick up one food and supply kit. 8 - 10 a.m. and 4 - 6 p.m.,Northside ISD,https://nowcastsa.com/sites/default/files/styles/thumbnail/public/northsideisd_0.jpg,"0",OK,"13200 Skyhawk Dr, San Antonio, TX 78249, USA",ChIJfVWP7C9mXIYRMCGVCEqS0k0,ROOFTOP,"29.563636,-98.6502835"
2120 N. Ellison,"San Antonio, TX",Vale MS,https://www.nisd.net/…/nisd-offer-food-kits-and-online-inst…,Each car or vehicle will be able to pick up one food and supply kit. 8 - 10 a.m. and 4 - 6 p.m.,Northside ISD,https://nowcastsa.com/sites/default/files/styles/thumbnail/public/northsideisd_0.jpg,"0",OK,"2120 N Ellison Dr, San Antonio, TX 78251, USA",ChIJ5RjOzQJDXIYRB5TbrU3OPnc,ROOFTOP,"29.4555269,-98.69392839999999"
9410 Timber Path,"San Antonio, TX",Zachry MS,https://www.nisd.net/…/nisd-offer-food-kits-and-online-inst…,Each car or vehicle will be able to pick up one food and supply kit. 8 - 10 a.m. and 4 - 6 p.m.,Northside ISD,https://nowcastsa.com/sites/default/files/styles/thumbnail/public/northsideisd_0.jpg,"0",OK,"9410 Timber Path, San Antonio, TX 78250, USA",ChIJ7Vju5ZdCXIYRWBOwXrmBWEg,ROOFTOP,"29.4928744,-98.6822399"
1725 Palo Alto Rd,"San Antonio, TX",Palo Alto ES,https://www.facebook.com/…/a.4252205621…/10159693678282178/…,curbside pickup of breakfast 7:30 a.m. to 9:00 a.m. and lunch from 11:00 a.m. to 12:30 p.m.,South San ISD,https://nowcastsa.com/sites/default/files/styles/thumbnail/public/soutsanisd.png,"0",OK,"1725 Palo Alto Rd, San Antonio, TX 78211, USA",ChIJ90TqL-FZXIYRQ33PrgG_tiE,ROOFTOP,"29.3344143,-98.5533037"
500 Price Ave,"San Antonio, TX",Carrillo ES,https://www.facebook.com/…/a.4252205621…/10159693678282178/…,curbside pickup of breakfast 7:30 a.m. to 9:00 a.m. and lunch from 11:00 a.m. to 12:30 p.m.,South San ISD,https://nowcastsa.com/sites/default/files/styles/thumbnail/public/soutsanisd.png,"0",OK,"500 Price Ave, San Antonio, TX 78211, USA",ChIJ-1EcVZBZXIYR4IFh1sAfYE4,ROOFTOP,"29.3600889,-98.5587109"
7138 Five Palms Dr,"San Antonio, TX",Five Palms ES,https://www.facebook.com/…/a.4252205621…/10159693678282178/…,curbside pickup of breakfast 7:30 a.m. to 9:00 a.m. and lunch from 11:00 a.m. to 12:30 p.m.,South San ISD,https://nowcastsa.com/sites/default/files/styles/thumbnail/public/soutsanisd.png,"0",OK,"7138 Five Palms Dr, San Antonio, TX 78242, USA",ChIJLS7rF1haXIYR_t32JXP45d4,ROOFTOP,"29.358916,-98.61477699999999"
7811 Kindred St,"San Antonio, TX",Kindred ES,https://www.facebook.com/…/a.4252205621…/10159693678282178/…,curbside pickup of breakfast 7:30 a.m. to 9:00 a.m. and lunch from 11:00 a.m. to 12:30 p.m.,South San ISD,https://nowcastsa.com/sites/default/files/styles/thumbnail/public/soutsanisd.png,"0",OK,"7811 Kindred St, San Antonio, TX 78224, USA",ChIJD8Ywj-pZXIYRKiUhIbQi86U,ROOFTOP,"29.3501097,-98.5513189"
2250 Pue Rd,"San Antonio, TX",Big Country Elementary School,https://www.facebook.com/…/a.3999011730…/10157436915188068/…,curbside pickup of breakfast 7 a.m. to 8:30 a.m. and lunch from 11:00 a.m. to 1:00 p.m.,Southwest ISD,https://nowcastsa.com/sites/default/files/styles/thumbnail/public/southwestisd.jpg,"0",OK,"2250 Pue Rd, San Antonio, TX 78245, USA",ChIJPW31qYZEXIYRascZMC1hNdc,ROOFTOP,"29.40573,-98.6986051"
3022 Reforma Dr,"San Antonio, TX",Bob Hope Elementary School,https://www.facebook.com/…/a.3999011730…/10157436915188068/…,curbside pickup of breakfast 7 a.m. to 8:30 a.m. and lunch from 11:00 a.m. to 1:00 p.m.,Southwest ISD,https://nowcastsa.com/sites/default/files/styles/thumbnail/public/southwestisd.jpg,"0",OK,"3022 Reforma Dr, San Antonio, TX 78211, USA",ChIJU-_-9VtXXIYR_OwNDeeOKfI,ROOFTOP,"29.3221928,-98.55570689999999"
5102 Trading Post,"San Antonio, TX",Hidden Cove Elementary School,https://www.facebook.com/…/a.3999011730…/10157436915188068/…,curbside pickup of breakfast 7 a.m. to 8:30 a.m. and lunch from 11:00 a.m. to 1:00 p.m.,Southwest ISD,https://nowcastsa.com/sites/default/files/styles/thumbnail/public/southwestisd.jpg,"0",OK,"5102 Trading Post, San Antonio, TX 78242, USA",Ei01MTAyIFRyYWRpbmcgUG9zdCwgU2FuIEFudG9uaW8sIFRYIDc4MjQyLCBVU0EiGxIZChQKEgmrogzfbVpchhGTt8E96vCMbhDuJw,RANGE_INTERPOLATED,"29.3394291,-98.5993261"
8911 Excellence Dr,"San Antonio, TX",Medio Creek Elementary School,https://www.facebook.com/…/a.3999011730…/10157436915188068/…,curbside pickup of breakfast 7 a.m. to 8:30 a.m. and lunch from 11:00 a.m. to 1:00 p.m.,Southwest ISD,https://nowcastsa.com/sites/default/files/styles/thumbnail/public/southwestisd.jpg,"0",OK,"8911 Excellence Dr, San Antonio, TX 78252, USA",ChIJlRELFZFaXIYRmUZhdRoG7vw,ROOFTOP,"29.3397642,-98.6310929"
5902 Fishers Bend St,"San Antonio, TX",Sky Harbour Elementary School,https://www.facebook.com/…/a.3999011730…/10157436915188068/…,curbside pickup of breakfast 7 a.m. to 8:30 a.m. and lunch from 11:00 a.m. to 1:00 p.m.,Southwest ISD,https://nowcastsa.com/sites/default/files/styles/thumbnail/public/southwestisd.jpg,"0",OK,"5902 Fishers Bend St, San Antonio, TX 78242, USA",ChIJGaG20HxaXIYRM7ddnYQFp6Y,ROOFTOP,"29.336134,-98.61295299999999"
11914 Dragon Ln,"San Antonio, TX",Southwest Elementary school,https://www.facebook.com/…/a.3999011730…/10157436915188068/…,curbside pickup of breakfast 7 a.m. to 8:30 a.m. and lunch from 11:00 a.m. to 1:00 p.m.,Southwest ISD,https://nowcastsa.com/sites/default/files/styles/thumbnail/public/southwestisd.jpg,"0",OK,"11914 Dragon Ln, San Antonio, TX 78252, USA",ChIJJXzXEPpPXIYR0FHbh1qV9oc,ROOFTOP,"29.3087035,-98.67316849999999"
5311 Merlin Drive,"San Antonio, TX",Camelot Elementary,https://www.neisd.net/site/default.aspx…,Curbside meal sites will be open from 11:30 a.m. – 1:30 p.m. daily,North East ISD,https://nowcastsa.com/sites/default/files/styles/thumbnail/public/northeastisd.jpg,"0",OK,"5311 Merlin Dr, San Antonio, TX 78218, USA",ChIJeVNdY13zXIYRjbS46KvcWtQ,ROOFTOP,"29.5012859,-98.387503"
200 Lemonwood,"San Antonio, TX",Castle Hills Elementary,https://www.neisd.net/site/default.aspx…,Curbside meal sites will be open from 11:30 a.m. – 1:30 p.m. daily,North East ISD,https://nowcastsa.com/sites/default/files/styles/thumbnail/public/northeastisd.jpg,"0",OK,"200 Lemonwood Dr, San Antonio, TX 78213, USA",ChIJx16JgHlgXIYRE4XW5SVOESc,ROOFTOP,"29.52109729999999,-98.5196624"
4311 Clear Spring,"San Antonio, TX",Clear Spring Elementary,https://www.neisd.net/site/default.aspx…,Curbside meal sites will be open from 11:30 a.m. – 1:30 p.m. daily,North East ISD,https://nowcastsa.com/sites/default/files/styles/thumbnail/public/northeastisd.jpg,"0",OK,"4311 Clearspring Dr, San Antonio, TX 78217, USA",ChIJU0Hd31GLXIYRqZSLgMYDuCo,ROOFTOP,"29.5300199,-98.4075429"
302 Heimer Road,"San Antonio, TX",Coker Elementary,https://www.neisd.net/site/default.aspx…,Curbside meal sites will be open from 11:30 a.m. – 1:30 p.m. daily,North East ISD,https://nowcastsa.com/sites/default/files/styles/thumbnail/public/northeastisd.jpg,"0",OK,"302 Heimer Rd, San Antonio, TX 78232, USA",ChIJ0_1dfH2KXIYRJ4lkUAiiKLQ,ROOFTOP,"29.5650381,-98.4755569"
2627 Kerrybrook Court,"San Antonio, TX",Colonial Hills Elementary,https://www.neisd.net/site/default.aspx…,Curbside meal sites will be open from 11:30 a.m. – 1:30 p.m. daily,North East ISD,https://nowcastsa.com/sites/default/files/styles/thumbnail/public/northeastisd.jpg,"0",OK,"2627 Kerrybrook Ct, San Antonio, TX 78230, USA",ChIJsacV9YJgXIYRi17o0GFX7IY,ROOFTOP,"29.516039,-98.5363124"
7235 Dewhurst Road,"San Antonio, TX",Dellview Elementary,https://www.neisd.net/site/default.aspx…,Curbside meal sites will be open from 11:30 a.m. – 1:30 p.m. daily,North East ISD,https://nowcastsa.com/sites/default/files/styles/thumbnail/public/northeastisd.jpg,"0",OK,"7235 Dewhurst Rd, San Antonio, TX 78213, USA",ChIJx_g6nzxeXIYRRpB_HlqS_UI,ROOFTOP,"29.5009375,-98.5445501"
4415 Bloomdale,"San Antonio, TX",East Terrell Hills Elementary,https://www.neisd.net/site/default.aspx…,Curbside meal sites will be open from 11:30 a.m. – 1:30 p.m. daily,North East ISD,https://nowcastsa.com/sites/default/files/styles/thumbnail/public/northeastisd.jpg,"0",OK,"4415 Bloomdale, San Antonio, TX 78218, USA",ChIJNcZk7Jr0XIYRd-EYA2ItDXQ,ROOFTOP,"29.490266,-98.4058898"
12634 El Sendero,"San Antonio, TX",El Dorado Elementary,https://www.neisd.net/site/default.aspx…,Curbside meal sites will be open from 11:30 a.m. – 1:30 p.m. daily,North East ISD,https://nowcastsa.com/sites/default/files/styles/thumbnail/public/northeastisd.jpg,"0",OK,"12634 El Sendero St, San Antonio, TX 78233, USA",ChIJI7cSZ56MXIYRQxiOzGnvnQU,ROOFTOP,"29.5510255,-98.39401009999999"
6111 Fox Creek,"San Antonio, TX","Fox Run Elementary,",https://www.neisd.net/site/default.aspx…,Curbside meal sites will be open from 11:30 a.m. – 1:30 p.m. daily,North East ISD,https://nowcastsa.com/sites/default/files/styles/thumbnail/public/northeastisd.jpg,"0",OK,"6111 Fox Creek St, San Antonio, TX 78247, USA",ChIJd0AiI0SMXIYRSn6zM4wbjKk,ROOFTOP,"29.587947,-98.3676368"
10727 Memory Lane,"San Antonio, TX",Harmony Hills Elementary,https://www.neisd.net/site/default.aspx…,Curbside meal sites will be open from 11:30 a.m. – 1:30 p.m. daily,North East ISD,https://nowcastsa.com/sites/default/files/styles/thumbnail/public/northeastisd.jpg,"0",OK,"10727 Memory Ln, San Antonio, TX 78216, USA",ChIJ3-s4_RVgXIYR35SttMtkC1E,ROOFTOP,"29.5388258,-98.5007973"
16311 Huebner,"San Antonio, TX",Huebner Elementary,https://www.neisd.net/site/default.aspx…,Curbside meal sites will be open from 11:30 a.m. – 1:30 p.m. daily,North East ISD,https://nowcastsa.com/sites/default/files/styles/thumbnail/public/northeastisd.jpg,"0",OK,"16311 Huebner Rd, San Antonio, TX 78248, USA",ChIJJX4XQ3RhXIYRmQxKwmLumnc,ROOFTOP,"29.587541,-98.53206499999999"
1701 Jackson-Keller,"San Antonio, TX",Jackson-Keller Elementary,https://www.neisd.net/site/default.aspx…,Curbside meal sites will be open from 11:30 a.m. – 1:30 p.m. daily,North East ISD,https://nowcastsa.com/sites/default/files/styles/thumbnail/public/northeastisd.jpg,"0",OK,"1701 Jackson Keller Rd, San Antonio, TX 78213, USA",ChIJO8n939ZfXIYRzRxIkx9JAR4,ROOFTOP,"29.511235,-98.51995099999999"
1802 Larkspur,"San Antonio, TX",Larkspur Elementary,https://www.neisd.net/site/default.aspx…,Curbside meal sites will be open from 11:30 a.m. – 1:30 p.m. daily,North East ISD,https://nowcastsa.com/sites/default/files/styles/thumbnail/public/northeastisd.jpg,"0",OK,"1802 Larkspur Dr, San Antonio, TX 78213, USA",ChIJ14oWElxgXIYRXREhvgf1g6o,ROOFTOP,"29.5434389,-98.521582"
15806 O’Connor,"San Antonio, TX",Longs Creek Elementary,https://www.neisd.net/site/default.aspx…,Curbside meal sites will be open from 11:30 a.m. – 1:30 p.m. daily,North East ISD,https://nowcastsa.com/sites/default/files/styles/thumbnail/public/northeastisd.jpg,"0",OK,"15806 O'Connor Rd, San Antonio, TX 78247, USA",ChIJp3C2kHWMXIYRJnenotgZLwM,ROOFTOP,"29.5888329,-98.395467"
7047 Montgomery Drive,"San Antonio, TX",Montgomery Elementary,https://www.neisd.net/site/default.aspx…,Curbside meal sites will be open from 11:30 a.m. – 1:30 p.m. daily,North East ISD,https://nowcastsa.com/sites/default/files/styles/thumbnail/public/northeastisd.jpg,"0",OK,"7047 Montgomery Dr, San Antonio, TX 78239, USA",ChIJCaaAA9nyXIYRJhOF8OKvnOA,ROOFTOP,"29.511479,-98.349576"
13901 Higgins Road,"San Antonio, TX",Northern Hills Elementary,https://www.neisd.net/site/default.aspx…,Curbside meal sites will be open from 11:30 a.m. – 1:30 p.m. daily,North East ISD,https://nowcastsa.com/sites/default/files/styles/thumbnail/public/northeastisd.jpg,"0",OK,"13901 Higgins Rd, San Antonio, TX 78217, USA",ChIJ5_utPYCMXIYR4uLBk9bVctM,ROOFTOP,"29.5680626,-98.3958031"
519 Pike Road,"San Antonio, TX",Northwood Elementary,https://www.neisd.net/site/default.aspx…,Curbside meal sites will be open from 11:30 a.m. – 1:30 p.m. daily,North East ISD,https://nowcastsa.com/sites/default/files/styles/thumbnail/public/northeastisd.jpg,"0",OK,"519 Pike Rd, San Antonio, TX 78209, USA",ChIJ-WkTfyf1XIYRncGKcl7xRLs,ROOFTOP,"29.506146,-98.44058899999999"
3250 Nacogdoches Road,"San Antonio, TX",Oak Grove Elementary,https://www.neisd.net/site/default.aspx…,Curbside meal sites will be open from 11:30 a.m. – 1:30 p.m. daily,North East ISD,https://nowcastsa.com/sites/default/files/styles/thumbnail/public/northeastisd.jpg,"0",OK,"3250 Nacogdoches Rd, San Antonio, TX 78217, USA",ChIJwwQAZymLXIYRzQ5pUgtnQjI,ROOFTOP,"29.5271948,-98.4364136"
2800 Hunters Green,"San Antonio, TX",Oak Meadow Elementary,https://www.neisd.net/site/default.aspx…,Curbside meal sites will be open from 11:30 a.m. – 1:30 p.m. daily,North East ISD,https://nowcastsa.com/sites/default/files/styles/thumbnail/public/northeastisd.jpg,"0",OK,"2800 Hunters Green, San Antonio, TX 78231, USA",ChIJbcOnLRthXIYREceE69-cCc0,ROOFTOP,"29.5685328,-98.53934699999999"
1103 Allena,"San Antonio, TX",Olmos Elementary,https://www.neisd.net/site/default.aspx…,Curbside meal sites will be open from 11:30 a.m. – 1:30 p.m. daily,North East ISD,https://nowcastsa.com/sites/default/files/styles/thumbnail/public/northeastisd.jpg,"0",OK,"1103 Allena Dr, San Antonio, TX 78213, USA",ChIJa4QAasZfXIYRLajwlXkB9-4,ROOFTOP,"29.497141,-98.51547699999999"
16650 Redland Road,"San Antonio, TX",Redland Oaks Elementary,https://www.neisd.net/site/default.aspx…,Curbside meal sites will be open from 11:30 a.m. – 1:30 p.m. daily,North East ISD,https://nowcastsa.com/sites/default/files/styles/thumbnail/public/northeastisd.jpg,"0",OK,"16650 Redland Rd, San Antonio, TX 78247, USA",ChIJyeRrQsiLXIYR3nMxxJzC8Y0,ROOFTOP,"29.5922963,-98.43093139999999"
10222 Broadway,"San Antonio, TX",Regency Place Elementary,https://www.neisd.net/site/default.aspx…,Curbside meal sites will be open from 11:30 a.m. – 1:30 p.m. daily,North East ISD,https://nowcastsa.com/sites/default/files/styles/thumbnail/public/northeastisd.jpg,"0",OK,"10222 Broadway St, San Antonio, TX 78217, USA",ChIJXYA5atqKXIYRsPjjhXsDBj8,ROOFTOP,"29.5330241,-98.4474915"
8223 N. McCullough,"San Antonio, TX",Ridgeview Elementary,https://www.neisd.net/site/default.aspx…,Curbside meal sites will be open from 11:30 a.m. – 1:30 p.m. daily,North East ISD,https://nowcastsa.com/sites/default/files/styles/thumbnail/public/northeastisd.jpg,"0",OK,"8223 McCullough Ave, San Antonio, TX 78216, USA",ChIJQfLjjPxfXIYRsFLrbmMUTYk,ROOFTOP,"29.512857,-98.492974"
5933 Royal Ridge,"San Antonio, TX",Royal Ridge Elementary,https://www.neisd.net/site/default.aspx…,Curbside meal sites will be open from 11:30 a.m. – 1:30 p.m. daily,North East ISD,https://nowcastsa.com/sites/default/files/styles/thumbnail/public/northeastisd.jpg,"0",OK,"5933 Royal Ridge, San Antonio, TX 78239, USA",ChIJIW-B7siMXIYRvFYxnn5rTqA,ROOFTOP,"29.5348785,-98.3705476"
2569 NE Loop 410,"San Antonio, TX",Serna Elementary,https://www.neisd.net/site/default.aspx…,Curbside meal sites will be open from 11:30 a.m. – 1:30 p.m. daily,North East ISD,https://nowcastsa.com/sites/default/files/styles/thumbnail/public/northeastisd.jpg,"0",OK,"2569 NE Interstate 410 Loop, San Antonio, TX 78217, USA",ChIJixaVP7T0XIYRNcluee3ShR8,ROOFTOP,"29.5175617,-98.41427879999999"
5222 Stahl Road,"San Antonio, TX",Stahl Elementary,https://www.neisd.net/site/default.aspx…,Curbside meal sites will be open from 11:30 a.m. – 1:30 p.m. daily,North East ISD,https://nowcastsa.com/sites/default/files/styles/thumbnail/public/northeastisd.jpg,"0",OK,"5222 Stahl Rd, San Antonio, TX 78247, USA",ChIJgeil-G-MXIYR7G7zObeScX8,ROOFTOP,"29.58190309999999,-98.3857431"
5100 Knoll Creek,"San Antonio, TX",Steubing Ranch Elementary,https://www.neisd.net/site/default.aspx…,Curbside meal sites will be open from 11:30 a.m. – 1:30 p.m. daily,North East ISD,https://nowcastsa.com/sites/default/files/styles/thumbnail/public/northeastisd.jpg,"0",OK,"5100 Knollcreek Dr, San Antonio, TX 78247, USA",ChIJkTfR4QyMXIYR6vNE331_n-Q,ROOFTOP,"29.59439979999999,-98.3881195"
4618 Walzem Road,"San Antonio, TX",Walzem Elementary,https://www.neisd.net/site/default.aspx…,Curbside meal sites will be open from 11:30 a.m. – 1:30 p.m. daily,North East ISD,https://nowcastsa.com/sites/default/files/styles/thumbnail/public/northeastisd.jpg,"0",OK,"4618 Walzem Rd, San Antonio, TX 78218, USA",ChIJR9usfKb0XIYRsPFVnmmPWCw,ROOFTOP,"29.509064,-98.4012939"
3250 Thousand Oaks,"San Antonio, TX",Wetmore Elementary,https://www.neisd.net/site/default.aspx…,Curbside meal sites will be open from 11:30 a.m. – 1:30 p.m. daily,North East ISD,https://nowcastsa.com/sites/default/files/styles/thumbnail/public/northeastisd.jpg,"0",OK,"3250 Thousand Oaks Dr, San Antonio, TX 78247, USA",ChIJ0_nLgamLXIYRXgSkHD9elBE,ROOFTOP,"29.5700102,-98.4349587"
6523 Cascade,"San Antonio, TX",Wilshire Elementary,https://www.neisd.net/site/default.aspx…,Curbside meal sites will be open from 11:30 a.m. – 1:30 p.m. daily,North East ISD,https://nowcastsa.com/sites/default/files/styles/thumbnail/public/northeastisd.jpg,"0",OK,"6523 Cascade Pl, San Antonio, TX 78218, USA",ChIJ-27h_O30XIYRhrgvvaxS4_E,ROOFTOP,"29.487771,-98.42371999999999"
465 Faircrest,"San Antonio, TX",Windcrest Elementary,https://www.neisd.net/site/default.aspx…,Curbside meal sites will be open from 11:30 a.m. – 1:30 p.m. daily,North East ISD,https://nowcastsa.com/sites/default/files/styles/thumbnail/public/northeastisd.jpg,"0",OK,"465 Faircrest Dr, Windcrest, TX 78239, USA",ChIJ7VI9fk7zXIYRhdDlYn2TAYU,ROOFTOP,"29.518272,-98.382835"
5602 Fountainwood,"San Antonio, TX",Woodstone Elementary,https://www.neisd.net/site/default.aspx…,Curbside meal sites will be open from 11:30 a.m. – 1:30 p.m. daily,North East ISD,https://nowcastsa.com/sites/default/files/styles/thumbnail/public/northeastisd.jpg,"0",OK,"5602 Fountainwood, San Antonio, TX 78233, USA",ChIJWSnzo4yMXIYRkC8wEFPfmGw,ROOFTOP,"29.5645746,-98.37602729999999"
9142 FM78,"Converse, TX",Judson High School,https://www.judsonisd.org/site/default.aspx…,curbside pickup of breakfast 8:00 a.m. to 9:00 a.m. and lunch from 11:00 a.m. to 12:00 p.m.,Judson ISD,https://nowcastsa.com/sites/default/files/styles/thumbnail/public/judsonisd.png,"0",OK,"9142 FM78, Converse, TX 78109, USA",ChIJAenFWl_tXIYR3QnlokbyLdk,ROOFTOP,"29.5107049,-98.30816329999999"
3000 N Foster Rd,"San Antonio, TX",Wagner High School,https://www.judsonisd.org/site/default.aspx…,curbside pickup of breakfast 8:00 a.m. to 9:00 a.m. and lunch from 11:00 a.m. to 12:00 p.m.,Judson ISD,https://nowcastsa.com/sites/default/files/styles/thumbnail/public/judsonisd.png,"0",OK,"3000 N Foster Rd, San Antonio, TX 78244, USA",ChIJHbKrbcrzXIYRK2awt1p67zA,ROOFTOP,"29.4566422,-98.3569359"
8439 Athenian Dr,Universal City,Olympia Elementary School,https://www.judsonisd.org/site/default.aspx…,curbside pickup of breakfast 8:00 a.m. to 9:00 a.m. and lunch from 11:00 a.m. to 12:00 p.m.,Judson ISD,https://nowcastsa.com/sites/default/files/styles/thumbnail/public/judsonisd.png,"0",OK,"8439 Athenian Dr, Universal City, TX 78148, USA",ChIJd9wminmNXIYRoQWoOBIHRwk,ROOFTOP,"29.568789,-98.318096"
2440 Ackerman Rd,"San Antonio, TX",Hopkins Elementary School,https://www.judsonisd.org/site/default.aspx…,curbside pickup of breakfast 8:00 a.m. to 9:00 a.m. and lunch from 11:00 a.m. to 12:00 p.m.,Judson ISD,https://nowcastsa.com/sites/default/files/styles/thumbnail/public/judsonisd.png,"0",OK,"2440 Ackerman Rd, Kirby, TX 78219, USA",ChIJvzgrfuvzXIYR2wzfmKf2iGE,ROOFTOP,"29.4522538,-98.37945219999999"
3635 Candleglenn,"San Antonio, TX",Candlewood Elementary School,https://www.judsonisd.org/site/default.aspx…,curbside pickup of breakfast 8:00 a.m. to 9:00 a.m. and lunch from 11:00 a.m. to 12:00 p.m.,Judson ISD,https://nowcastsa.com/sites/default/files/styles/thumbnail/public/judsonisd.png,"0",OK,"3635 Candleglenn, San Antonio, TX 78244, USA",ChIJ0a35tbjzXIYRIs_VqVFiUpI,ROOFTOP,"29.4578787,-98.3687497"
7607 N New Braunfels Ave,"San Antonio, TX",Alamo Heights Junior School,http://www.ahisd.net/ne…/what_s_new/drive-_thru_meal_service,Curbside pickup 8:00AM - 10:00AM,Alamo Heights ISD,https://nowcastsa.com/sites/default/files/styles/thumbnail/public/alamoheightsisd.png,"0",OK,"7607 N New Braunfels Ave, San Antonio, TX 78209, USA",ChIJaYCuLT_1XIYRIW5IWBeVywA,ROOFTOP,"29.5014762,-98.4603272"
3223 S Loop 1604 E,"San Antonio, TX",Southside Heritage Elementary,https://www.facebook.com/southsideisd/posts/2904315356258071?__xts__[0]=68.ARBM6Xs2dosOVybQgxTcTilt1b3OYCJYqf8OD47-Er-PXmsIfJLyesrfD8JQDmsaafmyW4_gKGXoeLqNbbNnpOB_oJGv9LckxrbvQ1Igjfr1CXj7C5L1nfcYCfh-gwmz3mV7yZpdGcT1Tb7QNArUf5nGO6Bhhqr-D9dYnwKTbgLwM-m3hAb,Curbside pickup at 12:00PM,Southside ISD,https://nowcastsa.com/sites/default/files/styles/thumbnail/public/southsideisd.jpg,"0",OK,"3223 S Loop 1604 E, San Antonio, TX 78221, USA",ChIJXchUQSD_XIYRlJ2VCyWIBaM,ROOFTOP,"29.2220348,-98.442157"
19190 US-281 South #2,"San Antonio, TX",Southside High School,https://www.facebook.com/southsideisd/posts/2904315356258071?__xts__[0]=68.ARBM6Xs2dosOVybQgxTcTilt1b3OYCJYqf8OD47-Er-PXmsIfJLyesrfD8JQDmsaafmyW4_gKGXoeLqNbbNnpOB_oJGv9LckxrbvQ1Igjfr1CXj7C5L1nfcYCfh-gwmz3mV7yZpdGcT1Tb7QNArUf5nGO6Bhhqr-D9dYnwKTbgLwM-m3hAb,Curbside pickup at 12:00PM,Southside ISD,https://nowcastsa.com/sites/default/files/styles/thumbnail/public/southsideisd.jpg,"0",OK,"19190 US-281 #2, San Antonio, TX 78221, USA",EisxOTE5MCBVUy0yODEgIzIsIFNhbiBBbnRvbmlvLCBUWCA3ODIyMSwgVVNBIh0aGwoWChQKEglfYT5hTf9chhEgI2uqh9j9bRIBMg,ROOFTOP,"29.240567,-98.4727461"
7173 FM 1628,"San Antonio, TX",East Central High School,https://www.ecisd.net/Page/12262,curbside pickup of breakfast 7 a.m. to 9:00 a.m. and lunch from 11:00 a.m. to 1:00 p.m.,East Central ISD,https://nowcastsa.com/sites/default/files/styles/thumbnail/public/eastcentralisd.jpg,"0",OK,"7173 FM1628, San Antonio, TX 78263, USA",ChIJ9bTh8PDvXIYR1RtIRjBwtUg,ROOFTOP,"29.3524601,-98.29653429999999"
7284 FM 1628,"San Antonio, TX",CAST Lead High School,https://www.ecisd.net/Page/12262,curbside pickup of breakfast 7 a.m. to 9:00 a.m. and lunch from 11:00 a.m. to 1:00 p.m.,East Central ISD,https://nowcastsa.com/sites/default/files/styles/thumbnail/public/eastcentralisd.jpg,"0",OK,"7284 FM1628, Adkins, TX 78101, USA",ChIJW31ey_bvXIYR68QngLWlyhU,ROOFTOP,"29.3512119,-98.29417459999999"
8004 New Sulphur Springs Rd,"San Antonio, TX",Heritage Middle School,https://www.ecisd.net/Page/12262,curbside pickup of breakfast 7 a.m. to 9:00 a.m. and lunch from 11:00 a.m. to 1:00 p.m.,East Central ISD,https://nowcastsa.com/sites/default/files/styles/thumbnail/public/eastcentralisd.jpg,"0",OK,"8004 New Sulphur Springs Rd, San Antonio, TX 78263, USA",ChIJGZYKgW3wXIYRoNZ5kdEg134,ROOFTOP,"29.354821,-98.33366"
5903 SE Loop 410,"San Antonio, TX",Legacy Middle School,https://www.ecisd.net/Page/12262,curbside pickup of breakfast 7 a.m. to 9:00 a.m. and lunch from 11:00 a.m. to 1:00 p.m.,East Central ISD,https://nowcastsa.com/sites/default/files/styles/thumbnail/public/eastcentralisd.jpg,"0",OK,"5903 S East Loop 410, San Antonio, TX 78222, USA",ChIJy-HqRDT3XIYRz8W9i8mnir4,ROOFTOP,"29.3657808,-98.40001579999999"
10625 Green Lake St.,"San Antonio, TX",Harmony Elementary,https://www.ecisd.net/Page/12262,curbside pickup of breakfast 7 a.m. to 9:00 a.m. and lunch from 11:00 a.m. to 1:00 p.m.,East Central ISD,https://nowcastsa.com/sites/default/files/styles/thumbnail/public/eastcentralisd.jpg,"0",OK,"10625 Green Lake St, San Antonio, TX 78223, USA",ChIJf6K51CL6XIYRNu1LUw9jEWg,ROOFTOP,"29.3144761,-98.3854064"
3736 SE Military Dr,"San Antonio, TX",Highland Forest Elementary,https://www.ecisd.net/Page/12262,curbside pickup of breakfast 7 a.m. to 9:00 a.m. and lunch from 11:00 a.m. to 1:00 p.m.,East Central ISD,https://nowcastsa.com/sites/default/files/styles/thumbnail/public/eastcentralisd.jpg,"0",OK,"3736 SE Military Dr, San Antonio, TX 78223, USA",ChIJ9wD7mGn3XIYRazFvOEPfDm8,ROOFTOP,"29.3535422,-98.4208472"
7806 New Sulphur Springs Rd,"San Antonio, TX",Oak Crest Elementary,https://www.ecisd.net/Page/12262,curbside pickup of breakfast 7 a.m. to 9:00 a.m. and lunch from 11:00 a.m. to 1:00 p.m.,East Central ISD,https://nowcastsa.com/sites/default/files/styles/thumbnail/public/eastcentralisd.jpg,"0",OK,"7806 New Sulphur Springs Rd, San Antonio, TX 78263, USA",ChIJNSo_9nHwXIYR3kT071mAAEY,ROOFTOP,"29.353422,-98.336299"
3966 E. Southcross,"San Antonio, TX",Pecan Valley Elementary,https://www.ecisd.net/Page/12262,curbside pickup of breakfast 7 a.m. to 9:00 a.m. and lunch from 11:00 a.m. to 1:00 p.m.,East Central ISD,https://nowcastsa.com/sites/default/files/styles/thumbnail/public/eastcentralisd.jpg,"0",OK,"3966 E Southcross, San Antonio, TX 78222, USA",ChIJv4Fq0iL3XIYRvEaG4Sn-RZ8,ROOFTOP,"29.372674,-98.416281"
3602 WW White Rd.,"San Antonio, TX",Salado Elementary,https://www.ecisd.net/Page/12262,curbside pickup of breakfast 7 a.m. to 9:00 a.m. and lunch from 11:00 a.m. to 1:00 p.m.,East Central ISD,https://nowcastsa.com/sites/default/files/styles/thumbnail/public/eastcentralisd.jpg,"0",OK,"3602 S WW White Rd, San Antonio, TX 78222, USA",ChIJ_1zqojX3XIYRxBeem6AhU-g,ROOFTOP,"29.3635582,-98.3998887"
6126 Sinclair Rd.,"San Antonio, TX",Sinclair Elementary,https://www.ecisd.net/Page/12262,curbside pickup of breakfast 7 a.m. to 9:00 a.m. and lunch from 11:00 a.m. to 1:00 p.m.,East Central ISD,https://nowcastsa.com/sites/default/files/styles/thumbnail/public/eastcentralisd.jpg,"0",OK,"6126 Sinclair Rd, San Antonio, TX 78222, USA",ChIJEeh7RODwXIYRjLC43XqvjTA,ROOFTOP,"29.38495249999999,-98.3731162"
2885 FM 1346,"San Antonio, TX",Tradition Elementary,https://www.ecisd.net/Page/12262,curbside pickup of breakfast 7 a.m. to 9:00 a.m. and lunch from 11:00 a.m. to 1:00 p.m.,East Central ISD,https://nowcastsa.com/sites/default/files/styles/thumbnail/public/eastcentralisd.jpg,"0",OK,"2885 FM 1346, La Vernia, TX 78121, USA",EiYyODg1IEZNIDEzNDYsIExhIFZlcm5pYSwgVFggNzgxMjEsIFVTQSIbEhkKFAoSCcnbSVld6FyGEWZf1gQp6G70EMUW,RANGE_INTERPOLATED,"29.3765159,-98.1679465"
369 FM 1346 South,"La Vernia, TX",Lavernia Middle School,https://www.lvisd.org//site/default.aspx?PageType=3&DomainID=4&ModuleInstanceID=11&ViewID=6446EE88-D30C-497E-9316-3F8874B3E108&RenderLoc=0&FlexDataID=5182&PageID=1,curbside pickup of breakfast 7:30 a.m. to 8:00 a.m. and lunch from 11:00 a.m. to 12:00 a.m.,La Vernia ISD,https://nowcastsa.com/sites/default/files/styles/thumbnail/public/lavernia_isd.png?itok=dpxP5qzH,"0",OK,"369 FM 1346, La Vernia, TX 78121, USA",ChIJu2tid1PdXIYRZNf-h2AMUFI,ROOFTOP,"29.35254189999999,-98.1304639"
8365 FM 471 South,"Castroville, TX",Medina Valley High School,https://www.mvisd.com/,curbside pickup of breakfast 7:30 a.m. to 8:30 a.m. and lunch from 11:00 a.m. to 12:30 a.m.,Medina Valley ISD,https://nowcastsa.com/sites/default/files/styles/thumbnail/public/medina_valley_isd.png?itok=Na9d7rml,"0",OK,"8365 FM471, Castroville, TX 78009, USA",ChIJh52jgPk4XIYRTJv9MlFZTy4,ROOFTOP,"29.3600651,-98.871842"
16069 Uvalde St,"Lacoste, TX",LaCoste Elementary School,https://www.mvisd.com/,curbside pickup of breakfast 7:30 a.m. to 8:30 a.m. and lunch from 11:00 a.m. to 12:30 a.m.,Medina Valley ISD,https://nowcastsa.com/sites/default/files/styles/thumbnail/public/medina_valley_isd.png?itok=Na9d7rml,"0",OK,"16069 Uvalde St, Lacoste, TX 78039, USA",EicxNjA2OSBVdmFsZGUgU3QsIExhY29zdGUsIFRYIDc4MDM5LCBVU0EiGxIZChQKEglBHLYh4EdchhEDqeXlN1XGNhDFfQ,RANGE_INTERPOLATED,"29.3120743,-98.8160754"
12045 Luckey River,"San Antonio, TX",Luckey Ranch Elementary School,https://www.mvisd.com/,curbside pickup of breakfast 7:30 a.m. to 8:30 a.m. and lunch from 11:00 a.m. to 12:30 a.m.,Medina Valley ISD,https://nowcastsa.com/sites/default/files/styles/thumbnail/public/medina_valley_isd.png?itok=Na9d7rml,"0",OK,"12045 Luckey River, San Antonio, TX 78252, USA",ChIJw8jOocxFXIYRUlbDw_FIKk4,ROOFTOP,"29.3633305,-98.73224669999999"
190 CR 381 South,"San Antonio, TX",Potranco Elementary School,https://www.mvisd.com/,curbside pickup of breakfast 7:30 a.m. to 8:30 a.m. and lunch from 11:00 a.m. to 12:30 a.m.,Medina Valley ISD,https://nowcastsa.com/sites/default/files/styles/thumbnail/public/medina_valley_isd.png?itok=Na9d7rml,"0",OK,"190 Co Rd 381, San Antonio, TX 78253, USA",ChIJG9qNzOpAXIYRuoJVEXahhAU,ROOFTOP,"29.4291454,-98.8140894"
701 Curtiss Ave,"Schertz, TX",Schertz Elementary School,https://www.scuc.txed.net/page/32560,curbside pickup of breakfast 7:30 a.m. to 8:30 a.m. and lunch from 11:30 a.m. to 1:00 p.m.,Schertz-Cibolo-Universal City ISD,https://nowcastsa.com/sites/default/files/styles/thumbnail/public/schertz-cibolo-universal_city_isd.jpg?itok=4QFJW5gb,"0",OK,"701 Curtiss Ave, Schertz, TX 78154, USA",ChIJVVVV4eCSXIYRRqXX1Njci-o,ROOFTOP,"29.5570029,-98.2688199"
